<?xml version="1.0" encoding="UTF-8"?>
<gpx version="1.1" creator="adequate-trailgen" xmlns="http://www.topografix.com/GPX/1/1">
  <trk>
    <name>candidate-4</name>
    <trkseg>
      <trkpt lat="40.00000000" lon="-105.00000000"><ele>1640.00</ele></trkpt>
      <trkpt lat="40.00022483" lon="-105.00000000"><ele>1642.25</ele></trkpt>
      <trkpt lat="40.00044966" lon="-105.00000000"><ele>1644.50</ele></trkpt>
      <trkpt lat="40.00044966" lon="-105.00000000"><ele>1644.50</ele></trkpt>
      <trkpt lat="40.00067449" lon="-105.00000000"><ele>1646.74</ele></trkpt>
      <trkpt lat="40.00089932" lon="-105.00000000"><ele>1648.99</ele></trkpt>
      <trkpt lat="40.00112415" lon="-105.00000000"><ele>1651.24</ele></trkpt>
      <trkpt lat="40.00112415" lon="-105.00000000"><ele>1651.24</ele></trkpt>
      <trkpt lat="40.00134898" lon="-105.00000000"><ele>1653.49</ele></trkpt>
      <trkpt lat="40.00157381" lon="-105.00000000"><ele>1655.74</ele></trkpt>
      <trkpt lat="40.00179864" lon="-105.00000000"><ele>1657.99</ele></trkpt>
      <trkpt lat="40.00179864" lon="-105.00000000"><ele>1657.99</ele></trkpt>
      <trkpt lat="40.00202347" lon="-105.00000000"><ele>1660.23</ele></trkpt>
      <trkpt lat="40.00224830" lon="-105.00000000"><ele>1662.48</ele></trkpt>
      <trkpt lat="40.00247313" lon="-105.00000000"><ele>1664.73</ele></trkpt>
      <trkpt lat="40.00269796" lon="-105.00000000"><ele>1666.98</ele></trkpt>
      <trkpt lat="40.00269796" lon="-105.00000000"><ele>1666.98</ele></trkpt>
      <trkpt lat="40.00292279" lon="-105.00000000"><ele>1669.23</ele></trkpt>
      <trkpt lat="40.00292279" lon="-105.00000000"><ele>1669.23</ele></trkpt>
      <trkpt lat="40.00314762" lon="-105.00000000"><ele>1671.48</ele></trkpt>
      <trkpt lat="40.00337245" lon="-105.00000000"><ele>1673.72</ele></trkpt>
      <trkpt lat="40.00359728" lon="-105.00000000"><ele>1675.97</ele></trkpt>
      <trkpt lat="40.00359728" lon="-105.00000000"><ele>1675.97</ele></trkpt>
      <trkpt lat="40.00382211" lon="-105.00000000"><ele>1678.22</ele></trkpt>
      <trkpt lat="40.00404694" lon="-105.00000000"><ele>1680.47</ele></trkpt>
      <trkpt lat="40.00427177" lon="-105.00000000"><ele>1682.72</ele></trkpt>
      <trkpt lat="40.00427177" lon="-105.00000000"><ele>1682.72</ele></trkpt>
      <trkpt lat="40.00449660" lon="-105.00000000"><ele>1684.97</ele></trkpt>
      <trkpt lat="40.00472143" lon="-105.00000000"><ele>1687.21</ele></trkpt>
      <trkpt lat="40.00494626" lon="-105.00000000"><ele>1689.46</ele></trkpt>
      <trkpt lat="40.00494626" lon="-105.00000000"><ele>1689.46</ele></trkpt>
      <trkpt lat="40.00517109" lon="-105.00000000"><ele>1691.54</ele></trkpt>
      <trkpt lat="40.00539592" lon="-105.00000000"><ele>1693.56</ele></trkpt>
      <trkpt lat="40.00562075" lon="-105.00000000"><ele>1695.59</ele></trkpt>
      <trkpt lat="40.00562075" lon="-105.00000000"><ele>1695.59</ele></trkpt>
      <trkpt lat="40.00584558" lon="-105.00000000"><ele>1697.61</ele></trkpt>
      <trkpt lat="40.00607041" lon="-105.00000000"><ele>1699.63</ele></trkpt>
      <trkpt lat="40.00629524" lon="-105.00000000"><ele>1701.66</ele></trkpt>
      <trkpt lat="40.00629524" lon="-105.00000000"><ele>1701.66</ele></trkpt>
      <trkpt lat="40.00652007" lon="-105.00000000"><ele>1703.68</ele></trkpt>
      <trkpt lat="40.00674490" lon="-105.00000000"><ele>1705.70</ele></trkpt>
      <trkpt lat="40.00696973" lon="-105.00000000"><ele>1707.73</ele></trkpt>
      <trkpt lat="40.00696973" lon="-105.00000000"><ele>1707.73</ele></trkpt>
      <trkpt lat="40.00719456" lon="-105.00000000"><ele>1709.75</ele></trkpt>
      <trkpt lat="40.00741939" lon="-105.00000000"><ele>1711.77</ele></trkpt>
      <trkpt lat="40.00764422" lon="-105.00000000"><ele>1713.80</ele></trkpt>
      <trkpt lat="40.00764422" lon="-105.00000000"><ele>1713.80</ele></trkpt>
      <trkpt lat="40.00786905" lon="-105.00000000"><ele>1715.82</ele></trkpt>
      <trkpt lat="40.00809388" lon="-105.00000000"><ele>1717.84</ele></trkpt>
      <trkpt lat="40.00831871" lon="-105.00000000"><ele>1719.87</ele></trkpt>
      <trkpt lat="40.00831871" lon="-105.00000000"><ele>1719.87</ele></trkpt>
      <trkpt lat="40.00854354" lon="-105.00000000"><ele>1721.89</ele></trkpt>
      <trkpt lat="40.00876837" lon="-105.00000000"><ele>1723.92</ele></trkpt>
      <trkpt lat="40.00876837" lon="-105.00000000"><ele>1723.92</ele></trkpt>
      <trkpt lat="40.00899320" lon="-105.00000000"><ele>1725.94</ele></trkpt>
      <trkpt lat="40.00921803" lon="-105.00000000"><ele>1727.96</ele></trkpt>
      <trkpt lat="40.00944286" lon="-105.00000000"><ele>1729.99</ele></trkpt>
      <trkpt lat="40.00944286" lon="-105.00000000"><ele>1729.99</ele></trkpt>
      <trkpt lat="40.00966769" lon="-105.00000000"><ele>1732.01</ele></trkpt>
      <trkpt lat="40.00989252" lon="-105.00000000"><ele>1734.03</ele></trkpt>
      <trkpt lat="40.01011735" lon="-105.00000000"><ele>1736.06</ele></trkpt>
      <trkpt lat="40.01011735" lon="-105.00000000"><ele>1736.06</ele></trkpt>
      <trkpt lat="40.01034218" lon="-105.00000000"><ele>1738.08</ele></trkpt>
      <trkpt lat="40.01056701" lon="-105.00000000"><ele>1740.10</ele></trkpt>
      <trkpt lat="40.01079184" lon="-105.00000000"><ele>1742.13</ele></trkpt>
      <trkpt lat="40.01079184" lon="-105.00000000"><ele>1742.13</ele></trkpt>
      <trkpt lat="40.01101667" lon="-105.00000000"><ele>1744.15</ele></trkpt>
      <trkpt lat="40.01124150" lon="-105.00000000"><ele>1746.17</ele></trkpt>
      <trkpt lat="40.01146633" lon="-105.00000000"><ele>1748.20</ele></trkpt>
      <trkpt lat="40.01146633" lon="-105.00000000"><ele>1748.20</ele></trkpt>
      <trkpt lat="40.01169116" lon="-105.00000000"><ele>1750.22</ele></trkpt>
      <trkpt lat="40.01191599" lon="-105.00000000"><ele>1752.24</ele></trkpt>
      <trkpt lat="40.01200000" lon="-105.00000000"><ele>1753.00</ele></trkpt>
      <trkpt lat="40.01200000" lon="-104.99970645"><ele>1752.00</ele></trkpt>
      <trkpt lat="40.01200000" lon="-104.99970645"><ele>1752.00</ele></trkpt>
      <trkpt lat="40.01200000" lon="-104.99941291"><ele>1751.00</ele></trkpt>
      <trkpt lat="40.01200000" lon="-104.99941291"><ele>1751.00</ele></trkpt>
      <trkpt lat="40.01200000" lon="-104.99911936"><ele>1750.01</ele></trkpt>
      <trkpt lat="40.01200000" lon="-104.99911936"><ele>1750.01</ele></trkpt>
      <trkpt lat="40.01200000" lon="-104.99882581"><ele>1749.01</ele></trkpt>
      <trkpt lat="40.01200000" lon="-104.99882581"><ele>1749.01</ele></trkpt>
      <trkpt lat="40.01200000" lon="-104.99853227"><ele>1748.01</ele></trkpt>
      <trkpt lat="40.01200000" lon="-104.99853227"><ele>1748.01</ele></trkpt>
      <trkpt lat="40.01200000" lon="-104.99823872"><ele>1747.01</ele></trkpt>
      <trkpt lat="40.01200000" lon="-104.99823872"><ele>1747.01</ele></trkpt>
      <trkpt lat="40.01200000" lon="-104.99794517"><ele>1746.01</ele></trkpt>
      <trkpt lat="40.01200000" lon="-104.99794517"><ele>1746.01</ele></trkpt>
      <trkpt lat="40.01200000" lon="-104.99765163"><ele>1745.02</ele></trkpt>
      <trkpt lat="40.01200000" lon="-104.99765163"><ele>1745.02</ele></trkpt>
      <trkpt lat="40.01200000" lon="-104.99735808"><ele>1744.02</ele></trkpt>
      <trkpt lat="40.01200000" lon="-104.99735808"><ele>1744.02</ele></trkpt>
      <trkpt lat="40.01200000" lon="-104.99706454"><ele>1743.02</ele></trkpt>
      <trkpt lat="40.01200000" lon="-104.99706454"><ele>1743.02</ele></trkpt>
      <trkpt lat="40.01200000" lon="-104.99677099"><ele>1742.02</ele></trkpt>
      <trkpt lat="40.01200000" lon="-104.99677099"><ele>1742.02</ele></trkpt>
      <trkpt lat="40.01200000" lon="-104.99647744"><ele>1741.02</ele></trkpt>
      <trkpt lat="40.01200000" lon="-104.99647744"><ele>1741.02</ele></trkpt>
      <trkpt lat="40.01200000" lon="-104.99618390"><ele>1740.03</ele></trkpt>
      <trkpt lat="40.01200000" lon="-104.99618390"><ele>1740.03</ele></trkpt>
      <trkpt lat="40.01200000" lon="-104.99589035"><ele>1739.03</ele></trkpt>
      <trkpt lat="40.01200000" lon="-104.99589035"><ele>1739.03</ele></trkpt>
      <trkpt lat="40.01200000" lon="-104.99559680"><ele>1738.03</ele></trkpt>
      <trkpt lat="40.01200000" lon="-104.99559680"><ele>1738.03</ele></trkpt>
      <trkpt lat="40.01200000" lon="-104.99530326"><ele>1737.03</ele></trkpt>
      <trkpt lat="40.01200000" lon="-104.99530326"><ele>1737.03</ele></trkpt>
      <trkpt lat="40.01200000" lon="-104.99500971"><ele>1736.03</ele></trkpt>
      <trkpt lat="40.01200000" lon="-104.99500971"><ele>1736.03</ele></trkpt>
      <trkpt lat="40.01200000" lon="-104.99471616"><ele>1735.03</ele></trkpt>
      <trkpt lat="40.01200000" lon="-104.99471616"><ele>1735.03</ele></trkpt>
      <trkpt lat="40.01200000" lon="-104.99442262"><ele>1734.04</ele></trkpt>
      <trkpt lat="40.01200000" lon="-104.99442262"><ele>1734.04</ele></trkpt>
      <trkpt lat="40.01200000" lon="-104.99412907"><ele>1733.04</ele></trkpt>
      <trkpt lat="40.01200000" lon="-104.99412907"><ele>1733.04</ele></trkpt>
      <trkpt lat="40.01200000" lon="-104.99383552"><ele>1732.04</ele></trkpt>
      <trkpt lat="40.01200000" lon="-104.99383552"><ele>1732.04</ele></trkpt>
      <trkpt lat="40.01200000" lon="-104.99354198"><ele>1731.04</ele></trkpt>
      <trkpt lat="40.01200000" lon="-104.99354198"><ele>1731.04</ele></trkpt>
      <trkpt lat="40.01200000" lon="-104.99324843"><ele>1730.04</ele></trkpt>
      <trkpt lat="40.01200000" lon="-104.99324843"><ele>1730.04</ele></trkpt>
      <trkpt lat="40.01200000" lon="-104.99295489"><ele>1729.05</ele></trkpt>
      <trkpt lat="40.01200000" lon="-104.99295489"><ele>1729.05</ele></trkpt>
      <trkpt lat="40.01200000" lon="-104.99266134"><ele>1728.05</ele></trkpt>
      <trkpt lat="40.01200000" lon="-104.99266134"><ele>1728.05</ele></trkpt>
      <trkpt lat="40.01200000" lon="-104.99236779"><ele>1727.05</ele></trkpt>
      <trkpt lat="40.01200000" lon="-104.99236779"><ele>1727.05</ele></trkpt>
      <trkpt lat="40.01200000" lon="-104.99207425"><ele>1726.05</ele></trkpt>
      <trkpt lat="40.01200000" lon="-104.99207425"><ele>1726.05</ele></trkpt>
      <trkpt lat="40.01200000" lon="-104.99178070"><ele>1725.05</ele></trkpt>
      <trkpt lat="40.01200000" lon="-104.99178070"><ele>1725.05</ele></trkpt>
      <trkpt lat="40.01200000" lon="-104.99148715"><ele>1724.06</ele></trkpt>
      <trkpt lat="40.01200000" lon="-104.99148715"><ele>1724.06</ele></trkpt>
      <trkpt lat="40.01200000" lon="-104.99119361"><ele>1723.06</ele></trkpt>
      <trkpt lat="40.01200000" lon="-104.99119361"><ele>1723.06</ele></trkpt>
      <trkpt lat="40.01200000" lon="-104.99090006"><ele>1722.06</ele></trkpt>
      <trkpt lat="40.01200000" lon="-104.99090006"><ele>1722.06</ele></trkpt>
      <trkpt lat="40.01200000" lon="-104.99060651"><ele>1721.06</ele></trkpt>
      <trkpt lat="40.01200000" lon="-104.99060651"><ele>1721.06</ele></trkpt>
      <trkpt lat="40.01200000" lon="-104.99031297"><ele>1720.06</ele></trkpt>
      <trkpt lat="40.01200000" lon="-104.99031297"><ele>1720.06</ele></trkpt>
      <trkpt lat="40.01200000" lon="-104.99001942"><ele>1719.07</ele></trkpt>
      <trkpt lat="40.01200000" lon="-104.99001942"><ele>1719.07</ele></trkpt>
      <trkpt lat="40.01200000" lon="-104.98972587"><ele>1718.07</ele></trkpt>
      <trkpt lat="40.01200000" lon="-104.98972587"><ele>1718.07</ele></trkpt>
      <trkpt lat="40.01200000" lon="-104.98943233"><ele>1717.07</ele></trkpt>
      <trkpt lat="40.01200000" lon="-104.98943233"><ele>1717.07</ele></trkpt>
      <trkpt lat="40.01200000" lon="-104.98913878"><ele>1716.07</ele></trkpt>
      <trkpt lat="40.01200000" lon="-104.98913878"><ele>1716.07</ele></trkpt>
      <trkpt lat="40.01200000" lon="-104.98884524"><ele>1715.07</ele></trkpt>
      <trkpt lat="40.01200000" lon="-104.98884524"><ele>1715.07</ele></trkpt>
      <trkpt lat="40.01200000" lon="-104.98855169"><ele>1714.08</ele></trkpt>
      <trkpt lat="40.01200000" lon="-104.98855169"><ele>1714.08</ele></trkpt>
      <trkpt lat="40.01200000" lon="-104.98825814"><ele>1713.08</ele></trkpt>
      <trkpt lat="40.01200000" lon="-104.98825814"><ele>1713.08</ele></trkpt>
      <trkpt lat="40.01200000" lon="-104.98800000"><ele>1712.20</ele></trkpt>
      <trkpt lat="40.01177517" lon="-104.98800000"><ele>1710.72</ele></trkpt>
      <trkpt lat="40.01155034" lon="-104.98800000"><ele>1709.23</ele></trkpt>
      <trkpt lat="40.01155034" lon="-104.98800000"><ele>1709.23</ele></trkpt>
      <trkpt lat="40.01132551" lon="-104.98800000"><ele>1707.75</ele></trkpt>
      <trkpt lat="40.01110068" lon="-104.98800000"><ele>1706.26</ele></trkpt>
      <trkpt lat="40.01087585" lon="-104.98800000"><ele>1704.78</ele></trkpt>
      <trkpt lat="40.01087585" lon="-104.98800000"><ele>1704.78</ele></trkpt>
      <trkpt lat="40.01065102" lon="-104.98800000"><ele>1703.30</ele></trkpt>
      <trkpt lat="40.01042619" lon="-104.98800000"><ele>1701.81</ele></trkpt>
      <trkpt lat="40.01020136" lon="-104.98800000"><ele>1700.33</ele></trkpt>
      <trkpt lat="40.01020136" lon="-104.98800000"><ele>1700.33</ele></trkpt>
      <trkpt lat="40.00997653" lon="-104.98800000"><ele>1698.85</ele></trkpt>
      <trkpt lat="40.00975170" lon="-104.98800000"><ele>1697.36</ele></trkpt>
      <trkpt lat="40.00952687" lon="-104.98800000"><ele>1695.88</ele></trkpt>
      <trkpt lat="40.00952687" lon="-104.98800000"><ele>1695.88</ele></trkpt>
      <trkpt lat="40.00930204" lon="-104.98800000"><ele>1694.39</ele></trkpt>
      <trkpt lat="40.00907721" lon="-104.98800000"><ele>1692.91</ele></trkpt>
      <trkpt lat="40.00907721" lon="-104.98800000"><ele>1692.91</ele></trkpt>
      <trkpt lat="40.00885238" lon="-104.98800000"><ele>1691.43</ele></trkpt>
      <trkpt lat="40.00885238" lon="-104.98800000"><ele>1691.43</ele></trkpt>
      <trkpt lat="40.00862755" lon="-104.98800000"><ele>1689.94</ele></trkpt>
      <trkpt lat="40.00840272" lon="-104.98800000"><ele>1688.46</ele></trkpt>
      <trkpt lat="40.00840272" lon="-104.98800000"><ele>1688.46</ele></trkpt>
      <trkpt lat="40.00817789" lon="-104.98800000"><ele>1686.97</ele></trkpt>
      <trkpt lat="40.00795306" lon="-104.98800000"><ele>1685.49</ele></trkpt>
      <trkpt lat="40.00772823" lon="-104.98800000"><ele>1684.01</ele></trkpt>
      <trkpt lat="40.00772823" lon="-104.98800000"><ele>1684.01</ele></trkpt>
      <trkpt lat="40.00750340" lon="-104.98800000"><ele>1682.52</ele></trkpt>
      <trkpt lat="40.00727857" lon="-104.98800000"><ele>1681.04</ele></trkpt>
      <trkpt lat="40.00705374" lon="-104.98800000"><ele>1679.55</ele></trkpt>
      <trkpt lat="40.00705374" lon="-104.98800000"><ele>1679.55</ele></trkpt>
      <trkpt lat="40.00682891" lon="-104.98800000"><ele>1678.07</ele></trkpt>
      <trkpt lat="40.00660408" lon="-104.98800000"><ele>1676.59</ele></trkpt>
      <trkpt lat="40.00637925" lon="-104.98800000"><ele>1675.10</ele></trkpt>
      <trkpt lat="40.00637925" lon="-104.98800000"><ele>1675.10</ele></trkpt>
      <trkpt lat="40.00615442" lon="-104.98800000"><ele>1673.62</ele></trkpt>
      <trkpt lat="40.00592959" lon="-104.98800000"><ele>1672.14</ele></trkpt>
      <trkpt lat="40.00570476" lon="-104.98800000"><ele>1670.65</ele></trkpt>
      <trkpt lat="40.00570476" lon="-104.98800000"><ele>1670.65</ele></trkpt>
      <trkpt lat="40.00547993" lon="-104.98800000"><ele>1669.17</ele></trkpt>
      <trkpt lat="40.00525510" lon="-104.98800000"><ele>1667.68</ele></trkpt>
      <trkpt lat="40.00503027" lon="-104.98800000"><ele>1666.20</ele></trkpt>
      <trkpt lat="40.00503027" lon="-104.98800000"><ele>1666.20</ele></trkpt>
      <trkpt lat="40.00480544" lon="-104.98800000"><ele>1664.05</ele></trkpt>
      <trkpt lat="40.00458061" lon="-104.98800000"><ele>1661.81</ele></trkpt>
      <trkpt lat="40.00435578" lon="-104.98800000"><ele>1659.56</ele></trkpt>
      <trkpt lat="40.00435578" lon="-104.98800000"><ele>1659.56</ele></trkpt>
      <trkpt lat="40.00413095" lon="-104.98800000"><ele>1657.31</ele></trkpt>
      <trkpt lat="40.00390612" lon="-104.98800000"><ele>1655.06</ele></trkpt>
      <trkpt lat="40.00368129" lon="-104.98800000"><ele>1652.81</ele></trkpt>
      <trkpt lat="40.00368129" lon="-104.98800000"><ele>1652.81</ele></trkpt>
      <trkpt lat="40.00345646" lon="-104.98800000"><ele>1650.56</ele></trkpt>
      <trkpt lat="40.00323163" lon="-104.98800000"><ele>1648.32</ele></trkpt>
      <trkpt lat="40.00323163" lon="-104.98800000"><ele>1648.32</ele></trkpt>
      <trkpt lat="40.00300680" lon="-104.98800000"><ele>1646.07</ele></trkpt>
      <trkpt lat="40.00278197" lon="-104.98800000"><ele>1643.82</ele></trkpt>
      <trkpt lat="40.00255714" lon="-104.98800000"><ele>1641.57</ele></trkpt>
      <trkpt lat="40.00255714" lon="-104.98800000"><ele>1641.57</ele></trkpt>
      <trkpt lat="40.00233231" lon="-104.98800000"><ele>1639.32</ele></trkpt>
      <trkpt lat="40.00210748" lon="-104.98800000"><ele>1637.07</ele></trkpt>
      <trkpt lat="40.00188265" lon="-104.98800000"><ele>1634.83</ele></trkpt>
      <trkpt lat="40.00188265" lon="-104.98800000"><ele>1634.83</ele></trkpt>
      <trkpt lat="40.00165782" lon="-104.98800000"><ele>1632.58</ele></trkpt>
      <trkpt lat="40.00143299" lon="-104.98800000"><ele>1630.33</ele></trkpt>
      <trkpt lat="40.00120816" lon="-104.98800000"><ele>1628.08</ele></trkpt>
      <trkpt lat="40.00120816" lon="-104.98800000"><ele>1628.08</ele></trkpt>
      <trkpt lat="40.00098333" lon="-104.98800000"><ele>1625.83</ele></trkpt>
      <trkpt lat="40.00075850" lon="-104.98800000"><ele>1623.58</ele></trkpt>
      <trkpt lat="40.00053367" lon="-104.98800000"><ele>1621.34</ele></trkpt>
      <trkpt lat="40.00053367" lon="-104.98800000"><ele>1621.34</ele></trkpt>
      <trkpt lat="40.00030884" lon="-104.98800000"><ele>1619.09</ele></trkpt>
      <trkpt lat="40.00008401" lon="-104.98800000"><ele>1616.84</ele></trkpt>
      <trkpt lat="40.00000000" lon="-104.98800000"><ele>1616.00</ele></trkpt>
      <trkpt lat="40.00000000" lon="-104.98829349"><ele>1616.59</ele></trkpt>
      <trkpt lat="40.00000000" lon="-104.98829349"><ele>1616.59</ele></trkpt>
      <trkpt lat="40.00000000" lon="-104.98858699"><ele>1617.17</ele></trkpt>
      <trkpt lat="40.00000000" lon="-104.98858699"><ele>1617.17</ele></trkpt>
      <trkpt lat="40.00000000" lon="-104.98888048"><ele>1617.76</ele></trkpt>
      <trkpt lat="40.00000000" lon="-104.98888048"><ele>1617.76</ele></trkpt>
      <trkpt lat="40.00000000" lon="-104.98917398"><ele>1618.35</ele></trkpt>
      <trkpt lat="40.00000000" lon="-104.98917398"><ele>1618.35</ele></trkpt>
      <trkpt lat="40.00000000" lon="-104.98946747"><ele>1618.93</ele></trkpt>
      <trkpt lat="40.00000000" lon="-104.98946747"><ele>1618.93</ele></trkpt>
      <trkpt lat="40.00000000" lon="-104.98976097"><ele>1619.52</ele></trkpt>
      <trkpt lat="40.00000000" lon="-104.98976097"><ele>1619.52</ele></trkpt>
      <trkpt lat="40.00000000" lon="-104.99005446"><ele>1620.11</ele></trkpt>
      <trkpt lat="40.00000000" lon="-104.99005446"><ele>1620.11</ele></trkpt>
      <trkpt lat="40.00000000" lon="-104.99034796"><ele>1620.70</ele></trkpt>
      <trkpt lat="40.00000000" lon="-104.99034796"><ele>1620.70</ele></trkpt>
      <trkpt lat="40.00000000" lon="-104.99064145"><ele>1621.28</ele></trkpt>
      <trkpt lat="40.00000000" lon="-104.99064145"><ele>1621.28</ele></trkpt>
      <trkpt lat="40.00000000" lon="-104.99093495"><ele>1621.87</ele></trkpt>
      <trkpt lat="40.00000000" lon="-104.99093495"><ele>1621.87</ele></trkpt>
      <trkpt lat="40.00000000" lon="-104.99122844"><ele>1622.46</ele></trkpt>
      <trkpt lat="40.00000000" lon="-104.99122844"><ele>1622.46</ele></trkpt>
      <trkpt lat="40.00000000" lon="-104.99152194"><ele>1623.04</ele></trkpt>
      <trkpt lat="40.00000000" lon="-104.99152194"><ele>1623.04</ele></trkpt>
      <trkpt lat="40.00000000" lon="-104.99181543"><ele>1623.63</ele></trkpt>
      <trkpt lat="40.00000000" lon="-104.99181543"><ele>1623.63</ele></trkpt>
      <trkpt lat="40.00000000" lon="-104.99210893"><ele>1624.22</ele></trkpt>
      <trkpt lat="40.00000000" lon="-104.99210893"><ele>1624.22</ele></trkpt>
      <trkpt lat="40.00000000" lon="-104.99240242"><ele>1624.80</ele></trkpt>
      <trkpt lat="40.00000000" lon="-104.99240242"><ele>1624.80</ele></trkpt>
      <trkpt lat="40.00000000" lon="-104.99269592"><ele>1625.39</ele></trkpt>
      <trkpt lat="40.00000000" lon="-104.99269592"><ele>1625.39</ele></trkpt>
      <trkpt lat="40.00000000" lon="-104.99298941"><ele>1625.98</ele></trkpt>
      <trkpt lat="40.00000000" lon="-104.99298941"><ele>1625.98</ele></trkpt>
      <trkpt lat="40.00000000" lon="-104.99328291"><ele>1626.57</ele></trkpt>
      <trkpt lat="40.00000000" lon="-104.99328291"><ele>1626.57</ele></trkpt>
      <trkpt lat="40.00000000" lon="-104.99357640"><ele>1627.15</ele></trkpt>
      <trkpt lat="40.00000000" lon="-104.99357640"><ele>1627.15</ele></trkpt>
      <trkpt lat="40.00000000" lon="-104.99386990"><ele>1627.74</ele></trkpt>
      <trkpt lat="40.00000000" lon="-104.99386990"><ele>1627.74</ele></trkpt>
      <trkpt lat="40.00000000" lon="-104.99416339"><ele>1628.33</ele></trkpt>
      <trkpt lat="40.00000000" lon="-104.99416339"><ele>1628.33</ele></trkpt>
      <trkpt lat="40.00000000" lon="-104.99445689"><ele>1628.91</ele></trkpt>
      <trkpt lat="40.00000000" lon="-104.99445689"><ele>1628.91</ele></trkpt>
      <trkpt lat="40.00000000" lon="-104.99475038"><ele>1629.50</ele></trkpt>
      <trkpt lat="40.00000000" lon="-104.99475038"><ele>1629.50</ele></trkpt>
      <trkpt lat="40.00000000" lon="-104.99504388"><ele>1630.09</ele></trkpt>
      <trkpt lat="40.00000000" lon="-104.99504388"><ele>1630.09</ele></trkpt>
      <trkpt lat="40.00000000" lon="-104.99533737"><ele>1630.67</ele></trkpt>
      <trkpt lat="40.00000000" lon="-104.99533737"><ele>1630.67</ele></trkpt>
      <trkpt lat="40.00000000" lon="-104.99563087"><ele>1631.26</ele></trkpt>
      <trkpt lat="40.00000000" lon="-104.99563087"><ele>1631.26</ele></trkpt>
      <trkpt lat="40.00000000" lon="-104.99592436"><ele>1631.85</ele></trkpt>
      <trkpt lat="40.00000000" lon="-104.99592436"><ele>1631.85</ele></trkpt>
      <trkpt lat="40.00000000" lon="-104.99621786"><ele>1632.44</ele></trkpt>
      <trkpt lat="40.00000000" lon="-104.99621786"><ele>1632.44</ele></trkpt>
      <trkpt lat="40.00000000" lon="-104.99651135"><ele>1633.02</ele></trkpt>
      <trkpt lat="40.00000000" lon="-104.99651135"><ele>1633.02</ele></trkpt>
      <trkpt lat="40.00000000" lon="-104.99680485"><ele>1633.61</ele></trkpt>
      <trkpt lat="40.00000000" lon="-104.99680485"><ele>1633.61</ele></trkpt>
      <trkpt lat="40.00000000" lon="-104.99709834"><ele>1634.20</ele></trkpt>
      <trkpt lat="40.00000000" lon="-104.99709834"><ele>1634.20</ele></trkpt>
      <trkpt lat="40.00000000" lon="-104.99739183"><ele>1634.78</ele></trkpt>
      <trkpt lat="40.00000000" lon="-104.99739183"><ele>1634.78</ele></trkpt>
      <trkpt lat="40.00000000" lon="-104.99768533"><ele>1635.37</ele></trkpt>
      <trkpt lat="40.00000000" lon="-104.99768533"><ele>1635.37</ele></trkpt>
      <trkpt lat="40.00000000" lon="-104.99797882"><ele>1635.96</ele></trkpt>
      <trkpt lat="40.00000000" lon="-104.99797882"><ele>1635.96</ele></trkpt>
      <trkpt lat="40.00000000" lon="-104.99827232"><ele>1636.54</ele></trkpt>
      <trkpt lat="40.00000000" lon="-104.99827232"><ele>1636.54</ele></trkpt>
      <trkpt lat="40.00000000" lon="-104.99856581"><ele>1637.13</ele></trkpt>
      <trkpt lat="40.00000000" lon="-104.99856581"><ele>1637.13</ele></trkpt>
      <trkpt lat="40.00000000" lon="-104.99885931"><ele>1637.72</ele></trkpt>
      <trkpt lat="40.00000000" lon="-104.99885931"><ele>1637.72</ele></trkpt>
      <trkpt lat="40.00000000" lon="-104.99915280"><ele>1638.31</ele></trkpt>
      <trkpt lat="40.00000000" lon="-104.99915280"><ele>1638.31</ele></trkpt>
      <trkpt lat="40.00000000" lon="-104.99944630"><ele>1638.89</ele></trkpt>
      <trkpt lat="40.00000000" lon="-104.99944630"><ele>1638.89</ele></trkpt>
      <trkpt lat="40.00000000" lon="-104.99973979"><ele>1639.48</ele></trkpt>
      <trkpt lat="40.00000000" lon="-104.99973979"><ele>1639.48</ele></trkpt>
      <trkpt lat="40.00000000" lon="-105.00000000"><ele>1640.00</ele></trkpt>
    </trkseg>
  </trk>
</gpx>
