<?xml version="1.0" encoding="UTF-8"?>
<kml xmlns="http://www.opengis.net/kml/2.2">
  <Document>
    <Placemark>
      <name>candidate-3</name>
      <description>score 9704.50; pareto rank 2; shape Loop; distance 4.04 km; ascent/descent 113/113 m; sustained-steep 0.00 km; grade flat 49.6%, rolling 50.4%, steep 0.0%, savage 0.0%; difficulty 2011.84; road 2.0%; low-confidence 0.0%; restricted-access 74.7%; repeated-edge 0.0%; constraints violated; violations difficulty 2011.84 above maximum 90.00 | restricted-access fraction 74.7% above maximum 0.0%</description>
      <LineString>
        <tessellate>1</tessellate>
        <coordinates>
          -105.00000000,40.00000000,1640.00
          -105.00000000,40.00022483,1642.25
          -105.00000000,40.00044966,1644.50
          -105.00000000,40.00044966,1644.50
          -105.00000000,40.00067449,1646.74
          -105.00000000,40.00089932,1648.99
          -105.00000000,40.00112415,1651.24
          -105.00000000,40.00112415,1651.24
          -105.00000000,40.00134898,1653.49
          -105.00000000,40.00157381,1655.74
          -105.00000000,40.00179864,1657.99
          -105.00000000,40.00179864,1657.99
          -105.00000000,40.00202347,1660.23
          -105.00000000,40.00224830,1662.48
          -105.00000000,40.00247313,1664.73
          -105.00000000,40.00269796,1666.98
          -105.00000000,40.00269796,1666.98
          -105.00000000,40.00292279,1669.23
          -105.00000000,40.00292279,1669.23
          -105.00000000,40.00314762,1671.48
          -105.00000000,40.00337245,1673.72
          -105.00000000,40.00359728,1675.97
          -105.00000000,40.00359728,1675.97
          -105.00000000,40.00382211,1678.22
          -105.00000000,40.00404694,1680.47
          -105.00000000,40.00427177,1682.72
          -105.00000000,40.00427177,1682.72
          -105.00000000,40.00449660,1684.97
          -105.00000000,40.00472143,1687.21
          -105.00000000,40.00494626,1689.46
          -105.00000000,40.00494626,1689.46
          -105.00000000,40.00517109,1691.54
          -105.00000000,40.00539592,1693.56
          -105.00000000,40.00562075,1695.59
          -105.00000000,40.00562075,1695.59
          -105.00000000,40.00584558,1697.61
          -105.00000000,40.00607041,1699.63
          -105.00000000,40.00629524,1701.66
          -105.00000000,40.00629524,1701.66
          -105.00000000,40.00652007,1703.68
          -105.00000000,40.00674490,1705.70
          -105.00000000,40.00696973,1707.73
          -105.00000000,40.00696973,1707.73
          -105.00000000,40.00719456,1709.75
          -105.00000000,40.00741939,1711.77
          -105.00000000,40.00764422,1713.80
          -105.00000000,40.00764422,1713.80
          -105.00000000,40.00786905,1715.82
          -105.00000000,40.00809388,1717.84
          -105.00000000,40.00831871,1719.87
          -105.00000000,40.00831871,1719.87
          -105.00000000,40.00854354,1721.89
          -105.00000000,40.00876837,1723.92
          -105.00000000,40.00876837,1723.92
          -105.00000000,40.00899320,1725.94
          -105.00000000,40.00921803,1727.96
          -105.00000000,40.00944286,1729.99
          -105.00000000,40.00944286,1729.99
          -105.00000000,40.00966769,1732.01
          -105.00000000,40.00989252,1734.03
          -105.00000000,40.01011735,1736.06
          -105.00000000,40.01011735,1736.06
          -105.00000000,40.01034218,1738.08
          -105.00000000,40.01056701,1740.10
          -105.00000000,40.01079184,1742.13
          -105.00000000,40.01079184,1742.13
          -105.00000000,40.01101667,1744.15
          -105.00000000,40.01124150,1746.17
          -105.00000000,40.01146633,1748.20
          -105.00000000,40.01146633,1748.20
          -105.00000000,40.01169116,1750.22
          -105.00000000,40.01191599,1752.24
          -105.00000000,40.01200000,1753.00
          -104.99970645,40.01200000,1752.00
          -104.99970645,40.01200000,1752.00
          -104.99941291,40.01200000,1751.00
          -104.99941291,40.01200000,1751.00
          -104.99911936,40.01200000,1750.01
          -104.99911936,40.01200000,1750.01
          -104.99882581,40.01200000,1749.01
          -104.99882581,40.01200000,1749.01
          -104.99853227,40.01200000,1748.01
          -104.99853227,40.01200000,1748.01
          -104.99823872,40.01200000,1747.01
          -104.99823872,40.01200000,1747.01
          -104.99794517,40.01200000,1746.01
          -104.99794517,40.01200000,1746.01
          -104.99765163,40.01200000,1745.02
          -104.99765163,40.01200000,1745.02
          -104.99735808,40.01200000,1744.02
          -104.99735808,40.01200000,1744.02
          -104.99706454,40.01200000,1743.02
          -104.99706454,40.01200000,1743.02
          -104.99677099,40.01200000,1742.02
          -104.99677099,40.01200000,1742.02
          -104.99647744,40.01200000,1741.02
          -104.99647744,40.01200000,1741.02
          -104.99618390,40.01200000,1740.03
          -104.99618390,40.01200000,1740.03
          -104.99589035,40.01200000,1739.03
          -104.99589035,40.01200000,1739.03
          -104.99559680,40.01200000,1738.03
          -104.99559680,40.01200000,1738.03
          -104.99530326,40.01200000,1737.03
          -104.99530326,40.01200000,1737.03
          -104.99500971,40.01200000,1736.03
          -104.99500971,40.01200000,1736.03
          -104.99471616,40.01200000,1735.03
          -104.99471616,40.01200000,1735.03
          -104.99442262,40.01200000,1734.04
          -104.99442262,40.01200000,1734.04
          -104.99412907,40.01200000,1733.04
          -104.99412907,40.01200000,1733.04
          -104.99383552,40.01200000,1732.04
          -104.99383552,40.01200000,1732.04
          -104.99354198,40.01200000,1731.04
          -104.99354198,40.01200000,1731.04
          -104.99324843,40.01200000,1730.04
          -104.99324843,40.01200000,1730.04
          -104.99295489,40.01200000,1729.05
          -104.99295489,40.01200000,1729.05
          -104.99266134,40.01200000,1728.05
          -104.99266134,40.01200000,1728.05
          -104.99236779,40.01200000,1727.05
          -104.99236779,40.01200000,1727.05
          -104.99207425,40.01200000,1726.05
          -104.99207425,40.01200000,1726.05
          -104.99178070,40.01200000,1725.05
          -104.99178070,40.01200000,1725.05
          -104.99148715,40.01200000,1724.06
          -104.99148715,40.01200000,1724.06
          -104.99119361,40.01200000,1723.06
          -104.99119361,40.01200000,1723.06
          -104.99090006,40.01200000,1722.06
          -104.99090006,40.01200000,1722.06
          -104.99060651,40.01200000,1721.06
          -104.99060651,40.01200000,1721.06
          -104.99031297,40.01200000,1720.06
          -104.99031297,40.01200000,1720.06
          -104.99001942,40.01200000,1719.07
          -104.99001942,40.01200000,1719.07
          -104.98972587,40.01200000,1718.07
          -104.98972587,40.01200000,1718.07
          -104.98943233,40.01200000,1717.07
          -104.98943233,40.01200000,1717.07
          -104.98913878,40.01200000,1716.07
          -104.98913878,40.01200000,1716.07
          -104.98884524,40.01200000,1715.07
          -104.98884524,40.01200000,1715.07
          -104.98855169,40.01200000,1714.08
          -104.98855169,40.01200000,1714.08
          -104.98825814,40.01200000,1713.08
          -104.98825814,40.01200000,1713.08
          -104.98800000,40.01200000,1712.20
          -104.98804144,40.01195856,1712.07
          -104.98821992,40.01178008,1711.49
          -104.98839841,40.01160159,1710.89
          -104.98857690,40.01142310,1710.29
          -104.98875538,40.01124462,1709.67
          -104.98893387,40.01106613,1709.04
          -104.98911235,40.01088765,1708.39
          -104.98929084,40.01070916,1707.74
          -104.98946933,40.01053067,1707.07
          -104.98964781,40.01035219,1706.38
          -104.98982630,40.01017370,1705.69
          -104.99000478,40.00999522,1704.98
          -104.99018327,40.00981673,1704.26
          -104.99036176,40.00963824,1703.53
          -104.99054024,40.00945976,1702.78
          -104.99071873,40.00928127,1702.02
          -104.99089721,40.00910279,1701.25
          -104.99107570,40.00892430,1700.47
          -104.99125419,40.00874581,1699.67
          -104.99143267,40.00856733,1698.86
          -104.99161116,40.00838884,1698.04
          -104.99178964,40.00821036,1697.20
          -104.99196813,40.00803187,1696.35
          -104.99214662,40.00785338,1695.49
          -104.99232510,40.00767490,1694.62
          -104.99250359,40.00749641,1693.73
          -104.99268207,40.00731793,1692.83
          -104.99286056,40.00713944,1691.92
          -104.99303905,40.00696095,1691.00
          -104.99321753,40.00678247,1690.06
          -104.99339602,40.00660398,1689.11
          -104.99357450,40.00642550,1688.15
          -104.99375299,40.00624701,1687.17
          -104.99393148,40.00606852,1686.18
          -104.99393148,40.00606852,1686.18
          -104.99410996,40.00589004,1685.18
          -104.99410996,40.00589004,1685.18
          -104.99428845,40.00571155,1684.17
          -104.99428845,40.00571155,1684.17
          -104.99446693,40.00553307,1683.14
          -104.99446693,40.00553307,1683.14
          -104.99464542,40.00535458,1682.10
          -104.99464542,40.00535458,1682.10
          -104.99482391,40.00517609,1681.05
          -104.99482391,40.00517609,1681.05
          -104.99500239,40.00499761,1679.98
          -104.99500239,40.00499761,1679.98
          -104.99518088,40.00481912,1678.55
          -104.99518088,40.00481912,1678.55
          -104.99535936,40.00464064,1677.13
          -104.99535937,40.00464063,1677.13
          -104.99553785,40.00446215,1675.70
          -104.99553785,40.00446215,1675.70
          -104.99571634,40.00428366,1674.27
          -104.99571634,40.00428366,1674.27
          -104.99589482,40.00410518,1672.84
          -104.99589482,40.00410518,1672.84
          -104.99607331,40.00392669,1671.41
          -104.99607331,40.00392669,1671.41
          -104.99625179,40.00374821,1669.99
          -104.99625180,40.00374820,1669.99
          -104.99643028,40.00356972,1668.56
          -104.99643028,40.00356972,1668.56
          -104.99660877,40.00339123,1667.13
          -104.99660877,40.00339123,1667.13
          -104.99678725,40.00321275,1665.70
          -104.99678725,40.00321275,1665.70
          -104.99696574,40.00303426,1664.27
          -104.99696574,40.00303426,1664.27
          -104.99714422,40.00285578,1662.85
          -104.99714423,40.00285577,1662.85
          -104.99732271,40.00267729,1661.42
          -104.99732271,40.00267729,1661.42
          -104.99750120,40.00249880,1659.99
          -104.99750120,40.00249880,1659.99
          -104.99767968,40.00232032,1658.56
          -104.99767969,40.00232031,1658.56
          -104.99785817,40.00214183,1657.13
          -104.99785817,40.00214183,1657.13
          -104.99803665,40.00196335,1655.71
          -104.99803666,40.00196334,1655.71
          -104.99821514,40.00178486,1654.28
          -104.99821514,40.00178486,1654.28
          -104.99839363,40.00160637,1652.85
          -104.99839363,40.00160637,1652.85
          -104.99857211,40.00142789,1651.42
          -104.99857212,40.00142788,1651.42
          -104.99875060,40.00124940,1650.00
          -104.99875060,40.00124940,1650.00
          -104.99892908,40.00107092,1648.57
          -104.99892909,40.00107091,1648.57
          -104.99910757,40.00089243,1647.14
          -104.99910758,40.00089242,1647.14
          -104.99928606,40.00071394,1645.71
          -104.99928606,40.00071394,1645.71
          -104.99946454,40.00053546,1644.28
          -104.99946455,40.00053545,1644.28
          -104.99964303,40.00035697,1642.86
          -104.99964303,40.00035697,1642.86
          -104.99982151,40.00017849,1641.43
          -104.99982152,40.00017848,1641.43
          -105.00000000,40.00000000,1640.00
        </coordinates>
      </LineString>
    </Placemark>
  </Document>
</kml>
