<?xml version="1.0" encoding="UTF-8"?>
<kml xmlns="http://www.opengis.net/kml/2.2">
  <Document>
    <Placemark>
      <name>candidate-4</name>
      <LineString>
        <tessellate>1</tessellate>
        <coordinates>
          -105.00000000,40.00000000,1640.00
          -105.00000000,40.00022483,1642.25
          -105.00000000,40.00044966,1644.50
          -105.00000000,40.00044966,1644.50
          -105.00000000,40.00067449,1646.74
          -105.00000000,40.00089932,1648.99
          -105.00000000,40.00112415,1651.24
          -105.00000000,40.00112415,1651.24
          -105.00000000,40.00134898,1653.49
          -105.00000000,40.00157381,1655.74
          -105.00000000,40.00179864,1657.99
          -105.00000000,40.00179864,1657.99
          -105.00000000,40.00202347,1660.23
          -105.00000000,40.00224830,1662.48
          -105.00000000,40.00247313,1664.73
          -105.00000000,40.00269796,1666.98
          -105.00000000,40.00269796,1666.98
          -105.00000000,40.00292279,1669.23
          -105.00000000,40.00292279,1669.23
          -105.00000000,40.00314762,1671.48
          -105.00000000,40.00337245,1673.72
          -105.00000000,40.00359728,1675.97
          -105.00000000,40.00359728,1675.97
          -105.00000000,40.00382211,1678.22
          -105.00000000,40.00404694,1680.47
          -105.00000000,40.00427177,1682.72
          -105.00000000,40.00427177,1682.72
          -105.00000000,40.00449660,1684.97
          -105.00000000,40.00472143,1687.21
          -105.00000000,40.00494626,1689.46
          -105.00000000,40.00494626,1689.46
          -105.00000000,40.00517109,1691.54
          -105.00000000,40.00539592,1693.56
          -105.00000000,40.00562075,1695.59
          -105.00000000,40.00562075,1695.59
          -105.00000000,40.00584558,1697.61
          -105.00000000,40.00607041,1699.63
          -105.00000000,40.00629524,1701.66
          -105.00000000,40.00629524,1701.66
          -105.00000000,40.00652007,1703.68
          -105.00000000,40.00674490,1705.70
          -105.00000000,40.00696973,1707.73
          -105.00000000,40.00696973,1707.73
          -105.00000000,40.00719456,1709.75
          -105.00000000,40.00741939,1711.77
          -105.00000000,40.00764422,1713.80
          -105.00000000,40.00764422,1713.80
          -105.00000000,40.00786905,1715.82
          -105.00000000,40.00809388,1717.84
          -105.00000000,40.00831871,1719.87
          -105.00000000,40.00831871,1719.87
          -105.00000000,40.00854354,1721.89
          -105.00000000,40.00876837,1723.92
          -105.00000000,40.00876837,1723.92
          -105.00000000,40.00899320,1725.94
          -105.00000000,40.00921803,1727.96
          -105.00000000,40.00944286,1729.99
          -105.00000000,40.00944286,1729.99
          -105.00000000,40.00966769,1732.01
          -105.00000000,40.00989252,1734.03
          -105.00000000,40.01011735,1736.06
          -105.00000000,40.01011735,1736.06
          -105.00000000,40.01034218,1738.08
          -105.00000000,40.01056701,1740.10
          -105.00000000,40.01079184,1742.13
          -105.00000000,40.01079184,1742.13
          -105.00000000,40.01101667,1744.15
          -105.00000000,40.01124150,1746.17
          -105.00000000,40.01146633,1748.20
          -105.00000000,40.01146633,1748.20
          -105.00000000,40.01169116,1750.22
          -105.00000000,40.01191599,1752.24
          -105.00000000,40.01200000,1753.00
          -104.99970645,40.01200000,1752.00
          -104.99970645,40.01200000,1752.00
          -104.99941291,40.01200000,1751.00
          -104.99941291,40.01200000,1751.00
          -104.99911936,40.01200000,1750.01
          -104.99911936,40.01200000,1750.01
          -104.99882581,40.01200000,1749.01
          -104.99882581,40.01200000,1749.01
          -104.99853227,40.01200000,1748.01
          -104.99853227,40.01200000,1748.01
          -104.99823872,40.01200000,1747.01
          -104.99823872,40.01200000,1747.01
          -104.99794517,40.01200000,1746.01
          -104.99794517,40.01200000,1746.01
          -104.99765163,40.01200000,1745.02
          -104.99765163,40.01200000,1745.02
          -104.99735808,40.01200000,1744.02
          -104.99735808,40.01200000,1744.02
          -104.99706454,40.01200000,1743.02
          -104.99706454,40.01200000,1743.02
          -104.99677099,40.01200000,1742.02
          -104.99677099,40.01200000,1742.02
          -104.99647744,40.01200000,1741.02
          -104.99647744,40.01200000,1741.02
          -104.99618390,40.01200000,1740.03
          -104.99618390,40.01200000,1740.03
          -104.99589035,40.01200000,1739.03
          -104.99589035,40.01200000,1739.03
          -104.99559680,40.01200000,1738.03
          -104.99559680,40.01200000,1738.03
          -104.99530326,40.01200000,1737.03
          -104.99530326,40.01200000,1737.03
          -104.99500971,40.01200000,1736.03
          -104.99500971,40.01200000,1736.03
          -104.99471616,40.01200000,1735.03
          -104.99471616,40.01200000,1735.03
          -104.99442262,40.01200000,1734.04
          -104.99442262,40.01200000,1734.04
          -104.99412907,40.01200000,1733.04
          -104.99412907,40.01200000,1733.04
          -104.99383552,40.01200000,1732.04
          -104.99383552,40.01200000,1732.04
          -104.99354198,40.01200000,1731.04
          -104.99354198,40.01200000,1731.04
          -104.99324843,40.01200000,1730.04
          -104.99324843,40.01200000,1730.04
          -104.99295489,40.01200000,1729.05
          -104.99295489,40.01200000,1729.05
          -104.99266134,40.01200000,1728.05
          -104.99266134,40.01200000,1728.05
          -104.99236779,40.01200000,1727.05
          -104.99236779,40.01200000,1727.05
          -104.99207425,40.01200000,1726.05
          -104.99207425,40.01200000,1726.05
          -104.99178070,40.01200000,1725.05
          -104.99178070,40.01200000,1725.05
          -104.99148715,40.01200000,1724.06
          -104.99148715,40.01200000,1724.06
          -104.99119361,40.01200000,1723.06
          -104.99119361,40.01200000,1723.06
          -104.99090006,40.01200000,1722.06
          -104.99090006,40.01200000,1722.06
          -104.99060651,40.01200000,1721.06
          -104.99060651,40.01200000,1721.06
          -104.99031297,40.01200000,1720.06
          -104.99031297,40.01200000,1720.06
          -104.99001942,40.01200000,1719.07
          -104.99001942,40.01200000,1719.07
          -104.98972587,40.01200000,1718.07
          -104.98972587,40.01200000,1718.07
          -104.98943233,40.01200000,1717.07
          -104.98943233,40.01200000,1717.07
          -104.98913878,40.01200000,1716.07
          -104.98913878,40.01200000,1716.07
          -104.98884524,40.01200000,1715.07
          -104.98884524,40.01200000,1715.07
          -104.98855169,40.01200000,1714.08
          -104.98855169,40.01200000,1714.08
          -104.98825814,40.01200000,1713.08
          -104.98825814,40.01200000,1713.08
          -104.98800000,40.01200000,1712.20
          -104.98800000,40.01177517,1710.72
          -104.98800000,40.01155034,1709.23
          -104.98800000,40.01155034,1709.23
          -104.98800000,40.01132551,1707.75
          -104.98800000,40.01110068,1706.26
          -104.98800000,40.01087585,1704.78
          -104.98800000,40.01087585,1704.78
          -104.98800000,40.01065102,1703.30
          -104.98800000,40.01042619,1701.81
          -104.98800000,40.01020136,1700.33
          -104.98800000,40.01020136,1700.33
          -104.98800000,40.00997653,1698.85
          -104.98800000,40.00975170,1697.36
          -104.98800000,40.00952687,1695.88
          -104.98800000,40.00952687,1695.88
          -104.98800000,40.00930204,1694.39
          -104.98800000,40.00907721,1692.91
          -104.98800000,40.00907721,1692.91
          -104.98800000,40.00885238,1691.43
          -104.98800000,40.00885238,1691.43
          -104.98800000,40.00862755,1689.94
          -104.98800000,40.00840272,1688.46
          -104.98800000,40.00840272,1688.46
          -104.98800000,40.00817789,1686.97
          -104.98800000,40.00795306,1685.49
          -104.98800000,40.00772823,1684.01
          -104.98800000,40.00772823,1684.01
          -104.98800000,40.00750340,1682.52
          -104.98800000,40.00727857,1681.04
          -104.98800000,40.00705374,1679.55
          -104.98800000,40.00705374,1679.55
          -104.98800000,40.00682891,1678.07
          -104.98800000,40.00660408,1676.59
          -104.98800000,40.00637925,1675.10
          -104.98800000,40.00637925,1675.10
          -104.98800000,40.00615442,1673.62
          -104.98800000,40.00592959,1672.14
          -104.98800000,40.00570476,1670.65
          -104.98800000,40.00570476,1670.65
          -104.98800000,40.00547993,1669.17
          -104.98800000,40.00525510,1667.68
          -104.98800000,40.00503027,1666.20
          -104.98800000,40.00503027,1666.20
          -104.98800000,40.00480544,1664.05
          -104.98800000,40.00458061,1661.81
          -104.98800000,40.00435578,1659.56
          -104.98800000,40.00435578,1659.56
          -104.98800000,40.00413095,1657.31
          -104.98800000,40.00390612,1655.06
          -104.98800000,40.00368129,1652.81
          -104.98800000,40.00368129,1652.81
          -104.98800000,40.00345646,1650.56
          -104.98800000,40.00323163,1648.32
          -104.98800000,40.00323163,1648.32
          -104.98800000,40.00300680,1646.07
          -104.98800000,40.00278197,1643.82
          -104.98800000,40.00255714,1641.57
          -104.98800000,40.00255714,1641.57
          -104.98800000,40.00233231,1639.32
          -104.98800000,40.00210748,1637.07
          -104.98800000,40.00188265,1634.83
          -104.98800000,40.00188265,1634.83
          -104.98800000,40.00165782,1632.58
          -104.98800000,40.00143299,1630.33
          -104.98800000,40.00120816,1628.08
          -104.98800000,40.00120816,1628.08
          -104.98800000,40.00098333,1625.83
          -104.98800000,40.00075850,1623.58
          -104.98800000,40.00053367,1621.34
          -104.98800000,40.00053367,1621.34
          -104.98800000,40.00030884,1619.09
          -104.98800000,40.00008401,1616.84
          -104.98800000,40.00000000,1616.00
          -104.98829349,40.00000000,1616.59
          -104.98829349,40.00000000,1616.59
          -104.98858699,40.00000000,1617.17
          -104.98858699,40.00000000,1617.17
          -104.98888048,40.00000000,1617.76
          -104.98888048,40.00000000,1617.76
          -104.98917398,40.00000000,1618.35
          -104.98917398,40.00000000,1618.35
          -104.98946747,40.00000000,1618.93
          -104.98946747,40.00000000,1618.93
          -104.98976097,40.00000000,1619.52
          -104.98976097,40.00000000,1619.52
          -104.99005446,40.00000000,1620.11
          -104.99005446,40.00000000,1620.11
          -104.99034796,40.00000000,1620.70
          -104.99034796,40.00000000,1620.70
          -104.99064145,40.00000000,1621.28
          -104.99064145,40.00000000,1621.28
          -104.99093495,40.00000000,1621.87
          -104.99093495,40.00000000,1621.87
          -104.99122844,40.00000000,1622.46
          -104.99122844,40.00000000,1622.46
          -104.99152194,40.00000000,1623.04
          -104.99152194,40.00000000,1623.04
          -104.99181543,40.00000000,1623.63
          -104.99181543,40.00000000,1623.63
          -104.99210893,40.00000000,1624.22
          -104.99210893,40.00000000,1624.22
          -104.99240242,40.00000000,1624.80
          -104.99240242,40.00000000,1624.80
          -104.99269592,40.00000000,1625.39
          -104.99269592,40.00000000,1625.39
          -104.99298941,40.00000000,1625.98
          -104.99298941,40.00000000,1625.98
          -104.99328291,40.00000000,1626.57
          -104.99328291,40.00000000,1626.57
          -104.99357640,40.00000000,1627.15
          -104.99357640,40.00000000,1627.15
          -104.99386990,40.00000000,1627.74
          -104.99386990,40.00000000,1627.74
          -104.99416339,40.00000000,1628.33
          -104.99416339,40.00000000,1628.33
          -104.99445689,40.00000000,1628.91
          -104.99445689,40.00000000,1628.91
          -104.99475038,40.00000000,1629.50
          -104.99475038,40.00000000,1629.50
          -104.99504388,40.00000000,1630.09
          -104.99504388,40.00000000,1630.09
          -104.99533737,40.00000000,1630.67
          -104.99533737,40.00000000,1630.67
          -104.99563087,40.00000000,1631.26
          -104.99563087,40.00000000,1631.26
          -104.99592436,40.00000000,1631.85
          -104.99592436,40.00000000,1631.85
          -104.99621786,40.00000000,1632.44
          -104.99621786,40.00000000,1632.44
          -104.99651135,40.00000000,1633.02
          -104.99651135,40.00000000,1633.02
          -104.99680485,40.00000000,1633.61
          -104.99680485,40.00000000,1633.61
          -104.99709834,40.00000000,1634.20
          -104.99709834,40.00000000,1634.20
          -104.99739183,40.00000000,1634.78
          -104.99739183,40.00000000,1634.78
          -104.99768533,40.00000000,1635.37
          -104.99768533,40.00000000,1635.37
          -104.99797882,40.00000000,1635.96
          -104.99797882,40.00000000,1635.96
          -104.99827232,40.00000000,1636.54
          -104.99827232,40.00000000,1636.54
          -104.99856581,40.00000000,1637.13
          -104.99856581,40.00000000,1637.13
          -104.99885931,40.00000000,1637.72
          -104.99885931,40.00000000,1637.72
          -104.99915280,40.00000000,1638.31
          -104.99915280,40.00000000,1638.31
          -104.99944630,40.00000000,1638.89
          -104.99944630,40.00000000,1638.89
          -104.99973979,40.00000000,1639.48
          -104.99973979,40.00000000,1639.48
          -105.00000000,40.00000000,1640.00
        </coordinates>
      </LineString>
    </Placemark>
  </Document>
</kml>
