<?xml version="1.0" encoding="UTF-8"?>
<kml xmlns="http://www.opengis.net/kml/2.2">
  <Document>
    <Placemark>
      <name>candidate-2</name>
      <LineString>
        <tessellate>1</tessellate>
        <coordinates>
          -105.00000000,40.00000000,1640.00
          -104.99973979,40.00000000,1639.48
          -104.99973979,40.00000000,1639.48
          -104.99944630,40.00000000,1638.89
          -104.99944630,40.00000000,1638.89
          -104.99915280,40.00000000,1638.31
          -104.99915280,40.00000000,1638.31
          -104.99885931,40.00000000,1637.72
          -104.99885931,40.00000000,1637.72
          -104.99856581,40.00000000,1637.13
          -104.99856581,40.00000000,1637.13
          -104.99827232,40.00000000,1636.54
          -104.99827232,40.00000000,1636.54
          -104.99797882,40.00000000,1635.96
          -104.99797882,40.00000000,1635.96
          -104.99768533,40.00000000,1635.37
          -104.99768533,40.00000000,1635.37
          -104.99739183,40.00000000,1634.78
          -104.99739183,40.00000000,1634.78
          -104.99709834,40.00000000,1634.20
          -104.99709834,40.00000000,1634.20
          -104.99680485,40.00000000,1633.61
          -104.99680485,40.00000000,1633.61
          -104.99651135,40.00000000,1633.02
          -104.99651135,40.00000000,1633.02
          -104.99621786,40.00000000,1632.44
          -104.99621786,40.00000000,1632.44
          -104.99592436,40.00000000,1631.85
          -104.99592436,40.00000000,1631.85
          -104.99563087,40.00000000,1631.26
          -104.99563087,40.00000000,1631.26
          -104.99533737,40.00000000,1630.67
          -104.99533737,40.00000000,1630.67
          -104.99504388,40.00000000,1630.09
          -104.99504388,40.00000000,1630.09
          -104.99475038,40.00000000,1629.50
          -104.99475038,40.00000000,1629.50
          -104.99445689,40.00000000,1628.91
          -104.99445689,40.00000000,1628.91
          -104.99416339,40.00000000,1628.33
          -104.99416339,40.00000000,1628.33
          -104.99386990,40.00000000,1627.74
          -104.99386990,40.00000000,1627.74
          -104.99357640,40.00000000,1627.15
          -104.99357640,40.00000000,1627.15
          -104.99328291,40.00000000,1626.57
          -104.99328291,40.00000000,1626.57
          -104.99298941,40.00000000,1625.98
          -104.99298941,40.00000000,1625.98
          -104.99269592,40.00000000,1625.39
          -104.99269592,40.00000000,1625.39
          -104.99240242,40.00000000,1624.80
          -104.99240242,40.00000000,1624.80
          -104.99210893,40.00000000,1624.22
          -104.99210893,40.00000000,1624.22
          -104.99181543,40.00000000,1623.63
          -104.99181543,40.00000000,1623.63
          -104.99152194,40.00000000,1623.04
          -104.99152194,40.00000000,1623.04
          -104.99122844,40.00000000,1622.46
          -104.99122844,40.00000000,1622.46
          -104.99093495,40.00000000,1621.87
          -104.99093495,40.00000000,1621.87
          -104.99064145,40.00000000,1621.28
          -104.99064145,40.00000000,1621.28
          -104.99034796,40.00000000,1620.70
          -104.99034796,40.00000000,1620.70
          -104.99005446,40.00000000,1620.11
          -104.99005446,40.00000000,1620.11
          -104.98976097,40.00000000,1619.52
          -104.98976097,40.00000000,1619.52
          -104.98946747,40.00000000,1618.93
          -104.98946747,40.00000000,1618.93
          -104.98917398,40.00000000,1618.35
          -104.98917398,40.00000000,1618.35
          -104.98888048,40.00000000,1617.76
          -104.98888048,40.00000000,1617.76
          -104.98858699,40.00000000,1617.17
          -104.98858699,40.00000000,1617.17
          -104.98829349,40.00000000,1616.59
          -104.98829349,40.00000000,1616.59
          -104.98800000,40.00000000,1616.00
          -104.98800000,40.00008401,1616.84
          -104.98800000,40.00030884,1619.09
          -104.98800000,40.00053367,1621.34
          -104.98800000,40.00053367,1621.34
          -104.98800000,40.00075850,1623.58
          -104.98800000,40.00098333,1625.83
          -104.98800000,40.00120816,1628.08
          -104.98800000,40.00120816,1628.08
          -104.98800000,40.00143299,1630.33
          -104.98800000,40.00165782,1632.58
          -104.98800000,40.00188265,1634.83
          -104.98800000,40.00188265,1634.83
          -104.98800000,40.00210748,1637.07
          -104.98800000,40.00233231,1639.32
          -104.98800000,40.00255714,1641.57
          -104.98800000,40.00255714,1641.57
          -104.98800000,40.00278197,1643.82
          -104.98800000,40.00300680,1646.07
          -104.98800000,40.00323163,1648.32
          -104.98800000,40.00323163,1648.32
          -104.98800000,40.00345646,1650.56
          -104.98800000,40.00368129,1652.81
          -104.98800000,40.00368129,1652.81
          -104.98800000,40.00390612,1655.06
          -104.98800000,40.00413095,1657.31
          -104.98800000,40.00435578,1659.56
          -104.98800000,40.00435578,1659.56
          -104.98800000,40.00458061,1661.81
          -104.98800000,40.00480544,1664.05
          -104.98800000,40.00503027,1666.20
          -104.98800000,40.00503027,1666.20
          -104.98800000,40.00525510,1667.68
          -104.98800000,40.00547993,1669.17
          -104.98800000,40.00570476,1670.65
          -104.98800000,40.00570476,1670.65
          -104.98800000,40.00592959,1672.14
          -104.98800000,40.00615442,1673.62
          -104.98800000,40.00637925,1675.10
          -104.98800000,40.00637925,1675.10
          -104.98800000,40.00660408,1676.59
          -104.98800000,40.00682891,1678.07
          -104.98800000,40.00705374,1679.55
          -104.98800000,40.00705374,1679.55
          -104.98800000,40.00727857,1681.04
          -104.98800000,40.00750340,1682.52
          -104.98800000,40.00772823,1684.01
          -104.98800000,40.00772823,1684.01
          -104.98800000,40.00795306,1685.49
          -104.98800000,40.00817789,1686.97
          -104.98800000,40.00840272,1688.46
          -104.98800000,40.00840272,1688.46
          -104.98800000,40.00862755,1689.94
          -104.98800000,40.00885238,1691.43
          -104.98800000,40.00885238,1691.43
          -104.98800000,40.00907721,1692.91
          -104.98800000,40.00907721,1692.91
          -104.98800000,40.00930204,1694.39
          -104.98800000,40.00952687,1695.88
          -104.98800000,40.00952687,1695.88
          -104.98800000,40.00975170,1697.36
          -104.98800000,40.00997653,1698.85
          -104.98800000,40.01020136,1700.33
          -104.98800000,40.01020136,1700.33
          -104.98800000,40.01042619,1701.81
          -104.98800000,40.01065102,1703.30
          -104.98800000,40.01087585,1704.78
          -104.98800000,40.01087585,1704.78
          -104.98800000,40.01110068,1706.26
          -104.98800000,40.01132551,1707.75
          -104.98800000,40.01155034,1709.23
          -104.98800000,40.01155034,1709.23
          -104.98800000,40.01177517,1710.72
          -104.98800000,40.01200000,1712.20
          -104.98804144,40.01195856,1712.07
          -104.98821992,40.01178008,1711.49
          -104.98839841,40.01160159,1710.89
          -104.98857690,40.01142310,1710.29
          -104.98875538,40.01124462,1709.67
          -104.98893387,40.01106613,1709.04
          -104.98911235,40.01088765,1708.39
          -104.98929084,40.01070916,1707.74
          -104.98946933,40.01053067,1707.07
          -104.98964781,40.01035219,1706.38
          -104.98982630,40.01017370,1705.69
          -104.99000478,40.00999522,1704.98
          -104.99018327,40.00981673,1704.26
          -104.99036176,40.00963824,1703.53
          -104.99054024,40.00945976,1702.78
          -104.99071873,40.00928127,1702.02
          -104.99089721,40.00910279,1701.25
          -104.99107570,40.00892430,1700.47
          -104.99125419,40.00874581,1699.67
          -104.99143267,40.00856733,1698.86
          -104.99161116,40.00838884,1698.04
          -104.99178964,40.00821036,1697.20
          -104.99196813,40.00803187,1696.35
          -104.99214662,40.00785338,1695.49
          -104.99232510,40.00767490,1694.62
          -104.99250359,40.00749641,1693.73
          -104.99268207,40.00731793,1692.83
          -104.99286056,40.00713944,1691.92
          -104.99303905,40.00696095,1691.00
          -104.99321753,40.00678247,1690.06
          -104.99339602,40.00660398,1689.11
          -104.99357450,40.00642550,1688.15
          -104.99375299,40.00624701,1687.17
          -104.99393148,40.00606852,1686.18
          -104.99393148,40.00606852,1686.18
          -104.99410996,40.00589004,1685.18
          -104.99410996,40.00589004,1685.18
          -104.99428845,40.00571155,1684.17
          -104.99428845,40.00571155,1684.17
          -104.99446693,40.00553307,1683.14
          -104.99446693,40.00553307,1683.14
          -104.99464542,40.00535458,1682.10
          -104.99464542,40.00535458,1682.10
          -104.99482391,40.00517609,1681.05
          -104.99482391,40.00517609,1681.05
          -104.99500239,40.00499761,1679.98
          -104.99500239,40.00499761,1679.98
          -104.99518088,40.00481912,1678.55
          -104.99518088,40.00481912,1678.55
          -104.99535936,40.00464064,1677.13
          -104.99535937,40.00464063,1677.13
          -104.99553785,40.00446215,1675.70
          -104.99553785,40.00446215,1675.70
          -104.99571634,40.00428366,1674.27
          -104.99571634,40.00428366,1674.27
          -104.99589482,40.00410518,1672.84
          -104.99589482,40.00410518,1672.84
          -104.99607331,40.00392669,1671.41
          -104.99607331,40.00392669,1671.41
          -104.99625179,40.00374821,1669.99
          -104.99625180,40.00374820,1669.99
          -104.99643028,40.00356972,1668.56
          -104.99643028,40.00356972,1668.56
          -104.99660877,40.00339123,1667.13
          -104.99660877,40.00339123,1667.13
          -104.99678725,40.00321275,1665.70
          -104.99678725,40.00321275,1665.70
          -104.99696574,40.00303426,1664.27
          -104.99696574,40.00303426,1664.27
          -104.99714422,40.00285578,1662.85
          -104.99714423,40.00285577,1662.85
          -104.99732271,40.00267729,1661.42
          -104.99732271,40.00267729,1661.42
          -104.99750120,40.00249880,1659.99
          -104.99750120,40.00249880,1659.99
          -104.99767968,40.00232032,1658.56
          -104.99767969,40.00232031,1658.56
          -104.99785817,40.00214183,1657.13
          -104.99785817,40.00214183,1657.13
          -104.99803665,40.00196335,1655.71
          -104.99803666,40.00196334,1655.71
          -104.99821514,40.00178486,1654.28
          -104.99821514,40.00178486,1654.28
          -104.99839363,40.00160637,1652.85
          -104.99839363,40.00160637,1652.85
          -104.99857211,40.00142789,1651.42
          -104.99857212,40.00142788,1651.42
          -104.99875060,40.00124940,1650.00
          -104.99875060,40.00124940,1650.00
          -104.99892908,40.00107092,1648.57
          -104.99892909,40.00107091,1648.57
          -104.99910757,40.00089243,1647.14
          -104.99910758,40.00089242,1647.14
          -104.99928606,40.00071394,1645.71
          -104.99928606,40.00071394,1645.71
          -104.99946454,40.00053546,1644.28
          -104.99946455,40.00053545,1644.28
          -104.99964303,40.00035697,1642.86
          -104.99964303,40.00035697,1642.86
          -104.99982151,40.00017849,1641.43
          -104.99982152,40.00017848,1641.43
          -105.00000000,40.00000000,1640.00
        </coordinates>
      </LineString>
    </Placemark>
  </Document>
</kml>
