<?xml version="1.0" encoding="UTF-8"?>
<gpx version="1.1" creator="adequate-trailgen" xmlns="http://www.topografix.com/GPX/1/1">
  <trk>
    <name>candidate-3</name>
    <desc>score 9704.50; pareto rank 2; shape Loop; distance 4.04 km; ascent/descent 113/113 m; difficulty 2011.84; road 2.0%; low-confidence 0.0%; restricted-access 74.7%; repeated-edge 0.0%; constraints violated; violations difficulty 2011.84 above maximum 90.00 | restricted-access fraction 74.7% above maximum 0.0%</desc>
    <type>hiking</type>
    <trkseg>
      <trkpt lat="40.00000000" lon="-105.00000000"><ele>1640.00</ele></trkpt>
      <trkpt lat="40.00022483" lon="-105.00000000"><ele>1642.25</ele></trkpt>
      <trkpt lat="40.00044966" lon="-105.00000000"><ele>1644.50</ele></trkpt>
      <trkpt lat="40.00044966" lon="-105.00000000"><ele>1644.50</ele></trkpt>
      <trkpt lat="40.00067449" lon="-105.00000000"><ele>1646.74</ele></trkpt>
      <trkpt lat="40.00089932" lon="-105.00000000"><ele>1648.99</ele></trkpt>
      <trkpt lat="40.00112415" lon="-105.00000000"><ele>1651.24</ele></trkpt>
      <trkpt lat="40.00112415" lon="-105.00000000"><ele>1651.24</ele></trkpt>
      <trkpt lat="40.00134898" lon="-105.00000000"><ele>1653.49</ele></trkpt>
      <trkpt lat="40.00157381" lon="-105.00000000"><ele>1655.74</ele></trkpt>
      <trkpt lat="40.00179864" lon="-105.00000000"><ele>1657.99</ele></trkpt>
      <trkpt lat="40.00179864" lon="-105.00000000"><ele>1657.99</ele></trkpt>
      <trkpt lat="40.00202347" lon="-105.00000000"><ele>1660.23</ele></trkpt>
      <trkpt lat="40.00224830" lon="-105.00000000"><ele>1662.48</ele></trkpt>
      <trkpt lat="40.00247313" lon="-105.00000000"><ele>1664.73</ele></trkpt>
      <trkpt lat="40.00269796" lon="-105.00000000"><ele>1666.98</ele></trkpt>
      <trkpt lat="40.00269796" lon="-105.00000000"><ele>1666.98</ele></trkpt>
      <trkpt lat="40.00292279" lon="-105.00000000"><ele>1669.23</ele></trkpt>
      <trkpt lat="40.00292279" lon="-105.00000000"><ele>1669.23</ele></trkpt>
      <trkpt lat="40.00314762" lon="-105.00000000"><ele>1671.48</ele></trkpt>
      <trkpt lat="40.00337245" lon="-105.00000000"><ele>1673.72</ele></trkpt>
      <trkpt lat="40.00359728" lon="-105.00000000"><ele>1675.97</ele></trkpt>
      <trkpt lat="40.00359728" lon="-105.00000000"><ele>1675.97</ele></trkpt>
      <trkpt lat="40.00382211" lon="-105.00000000"><ele>1678.22</ele></trkpt>
      <trkpt lat="40.00404694" lon="-105.00000000"><ele>1680.47</ele></trkpt>
      <trkpt lat="40.00427177" lon="-105.00000000"><ele>1682.72</ele></trkpt>
      <trkpt lat="40.00427177" lon="-105.00000000"><ele>1682.72</ele></trkpt>
      <trkpt lat="40.00449660" lon="-105.00000000"><ele>1684.97</ele></trkpt>
      <trkpt lat="40.00472143" lon="-105.00000000"><ele>1687.21</ele></trkpt>
      <trkpt lat="40.00494626" lon="-105.00000000"><ele>1689.46</ele></trkpt>
      <trkpt lat="40.00494626" lon="-105.00000000"><ele>1689.46</ele></trkpt>
      <trkpt lat="40.00517109" lon="-105.00000000"><ele>1691.54</ele></trkpt>
      <trkpt lat="40.00539592" lon="-105.00000000"><ele>1693.56</ele></trkpt>
      <trkpt lat="40.00562075" lon="-105.00000000"><ele>1695.59</ele></trkpt>
      <trkpt lat="40.00562075" lon="-105.00000000"><ele>1695.59</ele></trkpt>
      <trkpt lat="40.00584558" lon="-105.00000000"><ele>1697.61</ele></trkpt>
      <trkpt lat="40.00607041" lon="-105.00000000"><ele>1699.63</ele></trkpt>
      <trkpt lat="40.00629524" lon="-105.00000000"><ele>1701.66</ele></trkpt>
      <trkpt lat="40.00629524" lon="-105.00000000"><ele>1701.66</ele></trkpt>
      <trkpt lat="40.00652007" lon="-105.00000000"><ele>1703.68</ele></trkpt>
      <trkpt lat="40.00674490" lon="-105.00000000"><ele>1705.70</ele></trkpt>
      <trkpt lat="40.00696973" lon="-105.00000000"><ele>1707.73</ele></trkpt>
      <trkpt lat="40.00696973" lon="-105.00000000"><ele>1707.73</ele></trkpt>
      <trkpt lat="40.00719456" lon="-105.00000000"><ele>1709.75</ele></trkpt>
      <trkpt lat="40.00741939" lon="-105.00000000"><ele>1711.77</ele></trkpt>
      <trkpt lat="40.00764422" lon="-105.00000000"><ele>1713.80</ele></trkpt>
      <trkpt lat="40.00764422" lon="-105.00000000"><ele>1713.80</ele></trkpt>
      <trkpt lat="40.00786905" lon="-105.00000000"><ele>1715.82</ele></trkpt>
      <trkpt lat="40.00809388" lon="-105.00000000"><ele>1717.84</ele></trkpt>
      <trkpt lat="40.00831871" lon="-105.00000000"><ele>1719.87</ele></trkpt>
      <trkpt lat="40.00831871" lon="-105.00000000"><ele>1719.87</ele></trkpt>
      <trkpt lat="40.00854354" lon="-105.00000000"><ele>1721.89</ele></trkpt>
      <trkpt lat="40.00876837" lon="-105.00000000"><ele>1723.92</ele></trkpt>
      <trkpt lat="40.00876837" lon="-105.00000000"><ele>1723.92</ele></trkpt>
      <trkpt lat="40.00899320" lon="-105.00000000"><ele>1725.94</ele></trkpt>
      <trkpt lat="40.00921803" lon="-105.00000000"><ele>1727.96</ele></trkpt>
      <trkpt lat="40.00944286" lon="-105.00000000"><ele>1729.99</ele></trkpt>
      <trkpt lat="40.00944286" lon="-105.00000000"><ele>1729.99</ele></trkpt>
      <trkpt lat="40.00966769" lon="-105.00000000"><ele>1732.01</ele></trkpt>
      <trkpt lat="40.00989252" lon="-105.00000000"><ele>1734.03</ele></trkpt>
      <trkpt lat="40.01011735" lon="-105.00000000"><ele>1736.06</ele></trkpt>
      <trkpt lat="40.01011735" lon="-105.00000000"><ele>1736.06</ele></trkpt>
      <trkpt lat="40.01034218" lon="-105.00000000"><ele>1738.08</ele></trkpt>
      <trkpt lat="40.01056701" lon="-105.00000000"><ele>1740.10</ele></trkpt>
      <trkpt lat="40.01079184" lon="-105.00000000"><ele>1742.13</ele></trkpt>
      <trkpt lat="40.01079184" lon="-105.00000000"><ele>1742.13</ele></trkpt>
      <trkpt lat="40.01101667" lon="-105.00000000"><ele>1744.15</ele></trkpt>
      <trkpt lat="40.01124150" lon="-105.00000000"><ele>1746.17</ele></trkpt>
      <trkpt lat="40.01146633" lon="-105.00000000"><ele>1748.20</ele></trkpt>
      <trkpt lat="40.01146633" lon="-105.00000000"><ele>1748.20</ele></trkpt>
      <trkpt lat="40.01169116" lon="-105.00000000"><ele>1750.22</ele></trkpt>
      <trkpt lat="40.01191599" lon="-105.00000000"><ele>1752.24</ele></trkpt>
      <trkpt lat="40.01200000" lon="-105.00000000"><ele>1753.00</ele></trkpt>
      <trkpt lat="40.01200000" lon="-104.99970645"><ele>1752.00</ele></trkpt>
      <trkpt lat="40.01200000" lon="-104.99970645"><ele>1752.00</ele></trkpt>
      <trkpt lat="40.01200000" lon="-104.99941291"><ele>1751.00</ele></trkpt>
      <trkpt lat="40.01200000" lon="-104.99941291"><ele>1751.00</ele></trkpt>
      <trkpt lat="40.01200000" lon="-104.99911936"><ele>1750.01</ele></trkpt>
      <trkpt lat="40.01200000" lon="-104.99911936"><ele>1750.01</ele></trkpt>
      <trkpt lat="40.01200000" lon="-104.99882581"><ele>1749.01</ele></trkpt>
      <trkpt lat="40.01200000" lon="-104.99882581"><ele>1749.01</ele></trkpt>
      <trkpt lat="40.01200000" lon="-104.99853227"><ele>1748.01</ele></trkpt>
      <trkpt lat="40.01200000" lon="-104.99853227"><ele>1748.01</ele></trkpt>
      <trkpt lat="40.01200000" lon="-104.99823872"><ele>1747.01</ele></trkpt>
      <trkpt lat="40.01200000" lon="-104.99823872"><ele>1747.01</ele></trkpt>
      <trkpt lat="40.01200000" lon="-104.99794517"><ele>1746.01</ele></trkpt>
      <trkpt lat="40.01200000" lon="-104.99794517"><ele>1746.01</ele></trkpt>
      <trkpt lat="40.01200000" lon="-104.99765163"><ele>1745.02</ele></trkpt>
      <trkpt lat="40.01200000" lon="-104.99765163"><ele>1745.02</ele></trkpt>
      <trkpt lat="40.01200000" lon="-104.99735808"><ele>1744.02</ele></trkpt>
      <trkpt lat="40.01200000" lon="-104.99735808"><ele>1744.02</ele></trkpt>
      <trkpt lat="40.01200000" lon="-104.99706454"><ele>1743.02</ele></trkpt>
      <trkpt lat="40.01200000" lon="-104.99706454"><ele>1743.02</ele></trkpt>
      <trkpt lat="40.01200000" lon="-104.99677099"><ele>1742.02</ele></trkpt>
      <trkpt lat="40.01200000" lon="-104.99677099"><ele>1742.02</ele></trkpt>
      <trkpt lat="40.01200000" lon="-104.99647744"><ele>1741.02</ele></trkpt>
      <trkpt lat="40.01200000" lon="-104.99647744"><ele>1741.02</ele></trkpt>
      <trkpt lat="40.01200000" lon="-104.99618390"><ele>1740.03</ele></trkpt>
      <trkpt lat="40.01200000" lon="-104.99618390"><ele>1740.03</ele></trkpt>
      <trkpt lat="40.01200000" lon="-104.99589035"><ele>1739.03</ele></trkpt>
      <trkpt lat="40.01200000" lon="-104.99589035"><ele>1739.03</ele></trkpt>
      <trkpt lat="40.01200000" lon="-104.99559680"><ele>1738.03</ele></trkpt>
      <trkpt lat="40.01200000" lon="-104.99559680"><ele>1738.03</ele></trkpt>
      <trkpt lat="40.01200000" lon="-104.99530326"><ele>1737.03</ele></trkpt>
      <trkpt lat="40.01200000" lon="-104.99530326"><ele>1737.03</ele></trkpt>
      <trkpt lat="40.01200000" lon="-104.99500971"><ele>1736.03</ele></trkpt>
      <trkpt lat="40.01200000" lon="-104.99500971"><ele>1736.03</ele></trkpt>
      <trkpt lat="40.01200000" lon="-104.99471616"><ele>1735.03</ele></trkpt>
      <trkpt lat="40.01200000" lon="-104.99471616"><ele>1735.03</ele></trkpt>
      <trkpt lat="40.01200000" lon="-104.99442262"><ele>1734.04</ele></trkpt>
      <trkpt lat="40.01200000" lon="-104.99442262"><ele>1734.04</ele></trkpt>
      <trkpt lat="40.01200000" lon="-104.99412907"><ele>1733.04</ele></trkpt>
      <trkpt lat="40.01200000" lon="-104.99412907"><ele>1733.04</ele></trkpt>
      <trkpt lat="40.01200000" lon="-104.99383552"><ele>1732.04</ele></trkpt>
      <trkpt lat="40.01200000" lon="-104.99383552"><ele>1732.04</ele></trkpt>
      <trkpt lat="40.01200000" lon="-104.99354198"><ele>1731.04</ele></trkpt>
      <trkpt lat="40.01200000" lon="-104.99354198"><ele>1731.04</ele></trkpt>
      <trkpt lat="40.01200000" lon="-104.99324843"><ele>1730.04</ele></trkpt>
      <trkpt lat="40.01200000" lon="-104.99324843"><ele>1730.04</ele></trkpt>
      <trkpt lat="40.01200000" lon="-104.99295489"><ele>1729.05</ele></trkpt>
      <trkpt lat="40.01200000" lon="-104.99295489"><ele>1729.05</ele></trkpt>
      <trkpt lat="40.01200000" lon="-104.99266134"><ele>1728.05</ele></trkpt>
      <trkpt lat="40.01200000" lon="-104.99266134"><ele>1728.05</ele></trkpt>
      <trkpt lat="40.01200000" lon="-104.99236779"><ele>1727.05</ele></trkpt>
      <trkpt lat="40.01200000" lon="-104.99236779"><ele>1727.05</ele></trkpt>
      <trkpt lat="40.01200000" lon="-104.99207425"><ele>1726.05</ele></trkpt>
      <trkpt lat="40.01200000" lon="-104.99207425"><ele>1726.05</ele></trkpt>
      <trkpt lat="40.01200000" lon="-104.99178070"><ele>1725.05</ele></trkpt>
      <trkpt lat="40.01200000" lon="-104.99178070"><ele>1725.05</ele></trkpt>
      <trkpt lat="40.01200000" lon="-104.99148715"><ele>1724.06</ele></trkpt>
      <trkpt lat="40.01200000" lon="-104.99148715"><ele>1724.06</ele></trkpt>
      <trkpt lat="40.01200000" lon="-104.99119361"><ele>1723.06</ele></trkpt>
      <trkpt lat="40.01200000" lon="-104.99119361"><ele>1723.06</ele></trkpt>
      <trkpt lat="40.01200000" lon="-104.99090006"><ele>1722.06</ele></trkpt>
      <trkpt lat="40.01200000" lon="-104.99090006"><ele>1722.06</ele></trkpt>
      <trkpt lat="40.01200000" lon="-104.99060651"><ele>1721.06</ele></trkpt>
      <trkpt lat="40.01200000" lon="-104.99060651"><ele>1721.06</ele></trkpt>
      <trkpt lat="40.01200000" lon="-104.99031297"><ele>1720.06</ele></trkpt>
      <trkpt lat="40.01200000" lon="-104.99031297"><ele>1720.06</ele></trkpt>
      <trkpt lat="40.01200000" lon="-104.99001942"><ele>1719.07</ele></trkpt>
      <trkpt lat="40.01200000" lon="-104.99001942"><ele>1719.07</ele></trkpt>
      <trkpt lat="40.01200000" lon="-104.98972587"><ele>1718.07</ele></trkpt>
      <trkpt lat="40.01200000" lon="-104.98972587"><ele>1718.07</ele></trkpt>
      <trkpt lat="40.01200000" lon="-104.98943233"><ele>1717.07</ele></trkpt>
      <trkpt lat="40.01200000" lon="-104.98943233"><ele>1717.07</ele></trkpt>
      <trkpt lat="40.01200000" lon="-104.98913878"><ele>1716.07</ele></trkpt>
      <trkpt lat="40.01200000" lon="-104.98913878"><ele>1716.07</ele></trkpt>
      <trkpt lat="40.01200000" lon="-104.98884524"><ele>1715.07</ele></trkpt>
      <trkpt lat="40.01200000" lon="-104.98884524"><ele>1715.07</ele></trkpt>
      <trkpt lat="40.01200000" lon="-104.98855169"><ele>1714.08</ele></trkpt>
      <trkpt lat="40.01200000" lon="-104.98855169"><ele>1714.08</ele></trkpt>
      <trkpt lat="40.01200000" lon="-104.98825814"><ele>1713.08</ele></trkpt>
      <trkpt lat="40.01200000" lon="-104.98825814"><ele>1713.08</ele></trkpt>
      <trkpt lat="40.01200000" lon="-104.98800000"><ele>1712.20</ele></trkpt>
      <trkpt lat="40.01195856" lon="-104.98804144"><ele>1712.07</ele></trkpt>
      <trkpt lat="40.01178008" lon="-104.98821992"><ele>1711.49</ele></trkpt>
      <trkpt lat="40.01160159" lon="-104.98839841"><ele>1710.89</ele></trkpt>
      <trkpt lat="40.01142310" lon="-104.98857690"><ele>1710.29</ele></trkpt>
      <trkpt lat="40.01124462" lon="-104.98875538"><ele>1709.67</ele></trkpt>
      <trkpt lat="40.01106613" lon="-104.98893387"><ele>1709.04</ele></trkpt>
      <trkpt lat="40.01088765" lon="-104.98911235"><ele>1708.39</ele></trkpt>
      <trkpt lat="40.01070916" lon="-104.98929084"><ele>1707.74</ele></trkpt>
      <trkpt lat="40.01053067" lon="-104.98946933"><ele>1707.07</ele></trkpt>
      <trkpt lat="40.01035219" lon="-104.98964781"><ele>1706.38</ele></trkpt>
      <trkpt lat="40.01017370" lon="-104.98982630"><ele>1705.69</ele></trkpt>
      <trkpt lat="40.00999522" lon="-104.99000478"><ele>1704.98</ele></trkpt>
      <trkpt lat="40.00981673" lon="-104.99018327"><ele>1704.26</ele></trkpt>
      <trkpt lat="40.00963824" lon="-104.99036176"><ele>1703.53</ele></trkpt>
      <trkpt lat="40.00945976" lon="-104.99054024"><ele>1702.78</ele></trkpt>
      <trkpt lat="40.00928127" lon="-104.99071873"><ele>1702.02</ele></trkpt>
      <trkpt lat="40.00910279" lon="-104.99089721"><ele>1701.25</ele></trkpt>
      <trkpt lat="40.00892430" lon="-104.99107570"><ele>1700.47</ele></trkpt>
      <trkpt lat="40.00874581" lon="-104.99125419"><ele>1699.67</ele></trkpt>
      <trkpt lat="40.00856733" lon="-104.99143267"><ele>1698.86</ele></trkpt>
      <trkpt lat="40.00838884" lon="-104.99161116"><ele>1698.04</ele></trkpt>
      <trkpt lat="40.00821036" lon="-104.99178964"><ele>1697.20</ele></trkpt>
      <trkpt lat="40.00803187" lon="-104.99196813"><ele>1696.35</ele></trkpt>
      <trkpt lat="40.00785338" lon="-104.99214662"><ele>1695.49</ele></trkpt>
      <trkpt lat="40.00767490" lon="-104.99232510"><ele>1694.62</ele></trkpt>
      <trkpt lat="40.00749641" lon="-104.99250359"><ele>1693.73</ele></trkpt>
      <trkpt lat="40.00731793" lon="-104.99268207"><ele>1692.83</ele></trkpt>
      <trkpt lat="40.00713944" lon="-104.99286056"><ele>1691.92</ele></trkpt>
      <trkpt lat="40.00696095" lon="-104.99303905"><ele>1691.00</ele></trkpt>
      <trkpt lat="40.00678247" lon="-104.99321753"><ele>1690.06</ele></trkpt>
      <trkpt lat="40.00660398" lon="-104.99339602"><ele>1689.11</ele></trkpt>
      <trkpt lat="40.00642550" lon="-104.99357450"><ele>1688.15</ele></trkpt>
      <trkpt lat="40.00624701" lon="-104.99375299"><ele>1687.17</ele></trkpt>
      <trkpt lat="40.00606852" lon="-104.99393148"><ele>1686.18</ele></trkpt>
      <trkpt lat="40.00606852" lon="-104.99393148"><ele>1686.18</ele></trkpt>
      <trkpt lat="40.00589004" lon="-104.99410996"><ele>1685.18</ele></trkpt>
      <trkpt lat="40.00589004" lon="-104.99410996"><ele>1685.18</ele></trkpt>
      <trkpt lat="40.00571155" lon="-104.99428845"><ele>1684.17</ele></trkpt>
      <trkpt lat="40.00571155" lon="-104.99428845"><ele>1684.17</ele></trkpt>
      <trkpt lat="40.00553307" lon="-104.99446693"><ele>1683.14</ele></trkpt>
      <trkpt lat="40.00553307" lon="-104.99446693"><ele>1683.14</ele></trkpt>
      <trkpt lat="40.00535458" lon="-104.99464542"><ele>1682.10</ele></trkpt>
      <trkpt lat="40.00535458" lon="-104.99464542"><ele>1682.10</ele></trkpt>
      <trkpt lat="40.00517609" lon="-104.99482391"><ele>1681.05</ele></trkpt>
      <trkpt lat="40.00517609" lon="-104.99482391"><ele>1681.05</ele></trkpt>
      <trkpt lat="40.00499761" lon="-104.99500239"><ele>1679.98</ele></trkpt>
      <trkpt lat="40.00499761" lon="-104.99500239"><ele>1679.98</ele></trkpt>
      <trkpt lat="40.00481912" lon="-104.99518088"><ele>1678.55</ele></trkpt>
      <trkpt lat="40.00481912" lon="-104.99518088"><ele>1678.55</ele></trkpt>
      <trkpt lat="40.00464064" lon="-104.99535936"><ele>1677.13</ele></trkpt>
      <trkpt lat="40.00464063" lon="-104.99535937"><ele>1677.13</ele></trkpt>
      <trkpt lat="40.00446215" lon="-104.99553785"><ele>1675.70</ele></trkpt>
      <trkpt lat="40.00446215" lon="-104.99553785"><ele>1675.70</ele></trkpt>
      <trkpt lat="40.00428366" lon="-104.99571634"><ele>1674.27</ele></trkpt>
      <trkpt lat="40.00428366" lon="-104.99571634"><ele>1674.27</ele></trkpt>
      <trkpt lat="40.00410518" lon="-104.99589482"><ele>1672.84</ele></trkpt>
      <trkpt lat="40.00410518" lon="-104.99589482"><ele>1672.84</ele></trkpt>
      <trkpt lat="40.00392669" lon="-104.99607331"><ele>1671.41</ele></trkpt>
      <trkpt lat="40.00392669" lon="-104.99607331"><ele>1671.41</ele></trkpt>
      <trkpt lat="40.00374821" lon="-104.99625179"><ele>1669.99</ele></trkpt>
      <trkpt lat="40.00374820" lon="-104.99625180"><ele>1669.99</ele></trkpt>
      <trkpt lat="40.00356972" lon="-104.99643028"><ele>1668.56</ele></trkpt>
      <trkpt lat="40.00356972" lon="-104.99643028"><ele>1668.56</ele></trkpt>
      <trkpt lat="40.00339123" lon="-104.99660877"><ele>1667.13</ele></trkpt>
      <trkpt lat="40.00339123" lon="-104.99660877"><ele>1667.13</ele></trkpt>
      <trkpt lat="40.00321275" lon="-104.99678725"><ele>1665.70</ele></trkpt>
      <trkpt lat="40.00321275" lon="-104.99678725"><ele>1665.70</ele></trkpt>
      <trkpt lat="40.00303426" lon="-104.99696574"><ele>1664.27</ele></trkpt>
      <trkpt lat="40.00303426" lon="-104.99696574"><ele>1664.27</ele></trkpt>
      <trkpt lat="40.00285578" lon="-104.99714422"><ele>1662.85</ele></trkpt>
      <trkpt lat="40.00285577" lon="-104.99714423"><ele>1662.85</ele></trkpt>
      <trkpt lat="40.00267729" lon="-104.99732271"><ele>1661.42</ele></trkpt>
      <trkpt lat="40.00267729" lon="-104.99732271"><ele>1661.42</ele></trkpt>
      <trkpt lat="40.00249880" lon="-104.99750120"><ele>1659.99</ele></trkpt>
      <trkpt lat="40.00249880" lon="-104.99750120"><ele>1659.99</ele></trkpt>
      <trkpt lat="40.00232032" lon="-104.99767968"><ele>1658.56</ele></trkpt>
      <trkpt lat="40.00232031" lon="-104.99767969"><ele>1658.56</ele></trkpt>
      <trkpt lat="40.00214183" lon="-104.99785817"><ele>1657.13</ele></trkpt>
      <trkpt lat="40.00214183" lon="-104.99785817"><ele>1657.13</ele></trkpt>
      <trkpt lat="40.00196335" lon="-104.99803665"><ele>1655.71</ele></trkpt>
      <trkpt lat="40.00196334" lon="-104.99803666"><ele>1655.71</ele></trkpt>
      <trkpt lat="40.00178486" lon="-104.99821514"><ele>1654.28</ele></trkpt>
      <trkpt lat="40.00178486" lon="-104.99821514"><ele>1654.28</ele></trkpt>
      <trkpt lat="40.00160637" lon="-104.99839363"><ele>1652.85</ele></trkpt>
      <trkpt lat="40.00160637" lon="-104.99839363"><ele>1652.85</ele></trkpt>
      <trkpt lat="40.00142789" lon="-104.99857211"><ele>1651.42</ele></trkpt>
      <trkpt lat="40.00142788" lon="-104.99857212"><ele>1651.42</ele></trkpt>
      <trkpt lat="40.00124940" lon="-104.99875060"><ele>1650.00</ele></trkpt>
      <trkpt lat="40.00124940" lon="-104.99875060"><ele>1650.00</ele></trkpt>
      <trkpt lat="40.00107092" lon="-104.99892908"><ele>1648.57</ele></trkpt>
      <trkpt lat="40.00107091" lon="-104.99892909"><ele>1648.57</ele></trkpt>
      <trkpt lat="40.00089243" lon="-104.99910757"><ele>1647.14</ele></trkpt>
      <trkpt lat="40.00089242" lon="-104.99910758"><ele>1647.14</ele></trkpt>
      <trkpt lat="40.00071394" lon="-104.99928606"><ele>1645.71</ele></trkpt>
      <trkpt lat="40.00071394" lon="-104.99928606"><ele>1645.71</ele></trkpt>
      <trkpt lat="40.00053546" lon="-104.99946454"><ele>1644.28</ele></trkpt>
      <trkpt lat="40.00053545" lon="-104.99946455"><ele>1644.28</ele></trkpt>
      <trkpt lat="40.00035697" lon="-104.99964303"><ele>1642.86</ele></trkpt>
      <trkpt lat="40.00035697" lon="-104.99964303"><ele>1642.86</ele></trkpt>
      <trkpt lat="40.00017849" lon="-104.99982151"><ele>1641.43</ele></trkpt>
      <trkpt lat="40.00017848" lon="-104.99982152"><ele>1641.43</ele></trkpt>
      <trkpt lat="40.00000000" lon="-105.00000000"><ele>1640.00</ele></trkpt>
    </trkseg>
  </trk>
</gpx>
