<?xml version="1.0" encoding="UTF-8"?>
<gpx version="1.1" creator="adequate-trailgen" xmlns="http://www.topografix.com/GPX/1/1">
  <trk>
    <name>seed-known-good-loop</name>
    <trkseg>
      <trkpt lat="40.00000000" lon="-105.00000000"><ele>1640.00</ele></trkpt>
      <trkpt lat="40.00017848" lon="-104.99982152"><ele>1641.43</ele></trkpt>
      <trkpt lat="40.00017849" lon="-104.99982151"><ele>1641.43</ele></trkpt>
      <trkpt lat="40.00035697" lon="-104.99964303"><ele>1642.86</ele></trkpt>
      <trkpt lat="40.00035697" lon="-104.99964303"><ele>1642.86</ele></trkpt>
      <trkpt lat="40.00053545" lon="-104.99946455"><ele>1644.28</ele></trkpt>
      <trkpt lat="40.00053546" lon="-104.99946454"><ele>1644.28</ele></trkpt>
      <trkpt lat="40.00071394" lon="-104.99928606"><ele>1645.71</ele></trkpt>
      <trkpt lat="40.00071394" lon="-104.99928606"><ele>1645.71</ele></trkpt>
      <trkpt lat="40.00089242" lon="-104.99910758"><ele>1647.14</ele></trkpt>
      <trkpt lat="40.00089243" lon="-104.99910757"><ele>1647.14</ele></trkpt>
      <trkpt lat="40.00107091" lon="-104.99892909"><ele>1648.57</ele></trkpt>
      <trkpt lat="40.00107092" lon="-104.99892908"><ele>1648.57</ele></trkpt>
      <trkpt lat="40.00124940" lon="-104.99875060"><ele>1650.00</ele></trkpt>
      <trkpt lat="40.00124940" lon="-104.99875060"><ele>1650.00</ele></trkpt>
      <trkpt lat="40.00142788" lon="-104.99857212"><ele>1651.42</ele></trkpt>
      <trkpt lat="40.00142789" lon="-104.99857211"><ele>1651.42</ele></trkpt>
      <trkpt lat="40.00160637" lon="-104.99839363"><ele>1652.85</ele></trkpt>
      <trkpt lat="40.00160637" lon="-104.99839363"><ele>1652.85</ele></trkpt>
      <trkpt lat="40.00178486" lon="-104.99821514"><ele>1654.28</ele></trkpt>
      <trkpt lat="40.00178486" lon="-104.99821514"><ele>1654.28</ele></trkpt>
      <trkpt lat="40.00196334" lon="-104.99803666"><ele>1655.71</ele></trkpt>
      <trkpt lat="40.00196335" lon="-104.99803665"><ele>1655.71</ele></trkpt>
      <trkpt lat="40.00214183" lon="-104.99785817"><ele>1657.13</ele></trkpt>
      <trkpt lat="40.00214183" lon="-104.99785817"><ele>1657.13</ele></trkpt>
      <trkpt lat="40.00232031" lon="-104.99767969"><ele>1658.56</ele></trkpt>
      <trkpt lat="40.00232032" lon="-104.99767968"><ele>1658.56</ele></trkpt>
      <trkpt lat="40.00249880" lon="-104.99750120"><ele>1659.99</ele></trkpt>
      <trkpt lat="40.00249880" lon="-104.99750120"><ele>1659.99</ele></trkpt>
      <trkpt lat="40.00267729" lon="-104.99732271"><ele>1661.42</ele></trkpt>
      <trkpt lat="40.00267729" lon="-104.99732271"><ele>1661.42</ele></trkpt>
      <trkpt lat="40.00285577" lon="-104.99714423"><ele>1662.85</ele></trkpt>
      <trkpt lat="40.00285578" lon="-104.99714422"><ele>1662.85</ele></trkpt>
      <trkpt lat="40.00303426" lon="-104.99696574"><ele>1664.27</ele></trkpt>
      <trkpt lat="40.00303426" lon="-104.99696574"><ele>1664.27</ele></trkpt>
      <trkpt lat="40.00321275" lon="-104.99678725"><ele>1665.70</ele></trkpt>
      <trkpt lat="40.00321275" lon="-104.99678725"><ele>1665.70</ele></trkpt>
      <trkpt lat="40.00339123" lon="-104.99660877"><ele>1667.13</ele></trkpt>
      <trkpt lat="40.00339123" lon="-104.99660877"><ele>1667.13</ele></trkpt>
      <trkpt lat="40.00356972" lon="-104.99643028"><ele>1668.56</ele></trkpt>
      <trkpt lat="40.00356972" lon="-104.99643028"><ele>1668.56</ele></trkpt>
      <trkpt lat="40.00374820" lon="-104.99625180"><ele>1669.99</ele></trkpt>
      <trkpt lat="40.00374821" lon="-104.99625179"><ele>1669.99</ele></trkpt>
      <trkpt lat="40.00392669" lon="-104.99607331"><ele>1671.41</ele></trkpt>
      <trkpt lat="40.00392669" lon="-104.99607331"><ele>1671.41</ele></trkpt>
      <trkpt lat="40.00410518" lon="-104.99589482"><ele>1672.84</ele></trkpt>
      <trkpt lat="40.00410518" lon="-104.99589482"><ele>1672.84</ele></trkpt>
      <trkpt lat="40.00428366" lon="-104.99571634"><ele>1674.27</ele></trkpt>
      <trkpt lat="40.00428366" lon="-104.99571634"><ele>1674.27</ele></trkpt>
      <trkpt lat="40.00446215" lon="-104.99553785"><ele>1675.70</ele></trkpt>
      <trkpt lat="40.00446215" lon="-104.99553785"><ele>1675.70</ele></trkpt>
      <trkpt lat="40.00464063" lon="-104.99535937"><ele>1677.13</ele></trkpt>
      <trkpt lat="40.00464064" lon="-104.99535936"><ele>1677.13</ele></trkpt>
      <trkpt lat="40.00481912" lon="-104.99518088"><ele>1678.55</ele></trkpt>
      <trkpt lat="40.00481912" lon="-104.99518088"><ele>1678.55</ele></trkpt>
      <trkpt lat="40.00499761" lon="-104.99500239"><ele>1679.98</ele></trkpt>
      <trkpt lat="40.00499761" lon="-104.99500239"><ele>1679.98</ele></trkpt>
      <trkpt lat="40.00517609" lon="-104.99482391"><ele>1681.05</ele></trkpt>
      <trkpt lat="40.00517609" lon="-104.99482391"><ele>1681.05</ele></trkpt>
      <trkpt lat="40.00535458" lon="-104.99464542"><ele>1682.10</ele></trkpt>
      <trkpt lat="40.00535458" lon="-104.99464542"><ele>1682.10</ele></trkpt>
      <trkpt lat="40.00553307" lon="-104.99446693"><ele>1683.14</ele></trkpt>
      <trkpt lat="40.00553307" lon="-104.99446693"><ele>1683.14</ele></trkpt>
      <trkpt lat="40.00571155" lon="-104.99428845"><ele>1684.17</ele></trkpt>
      <trkpt lat="40.00571155" lon="-104.99428845"><ele>1684.17</ele></trkpt>
      <trkpt lat="40.00589004" lon="-104.99410996"><ele>1685.18</ele></trkpt>
      <trkpt lat="40.00589004" lon="-104.99410996"><ele>1685.18</ele></trkpt>
      <trkpt lat="40.00606852" lon="-104.99393148"><ele>1686.18</ele></trkpt>
      <trkpt lat="40.00606852" lon="-104.99393148"><ele>1686.18</ele></trkpt>
      <trkpt lat="40.00624701" lon="-104.99375299"><ele>1687.17</ele></trkpt>
      <trkpt lat="40.00642550" lon="-104.99357450"><ele>1688.15</ele></trkpt>
      <trkpt lat="40.00660398" lon="-104.99339602"><ele>1689.11</ele></trkpt>
      <trkpt lat="40.00678247" lon="-104.99321753"><ele>1690.06</ele></trkpt>
      <trkpt lat="40.00696095" lon="-104.99303905"><ele>1691.00</ele></trkpt>
      <trkpt lat="40.00713944" lon="-104.99286056"><ele>1691.92</ele></trkpt>
      <trkpt lat="40.00731793" lon="-104.99268207"><ele>1692.83</ele></trkpt>
      <trkpt lat="40.00749641" lon="-104.99250359"><ele>1693.73</ele></trkpt>
      <trkpt lat="40.00767490" lon="-104.99232510"><ele>1694.62</ele></trkpt>
      <trkpt lat="40.00785338" lon="-104.99214662"><ele>1695.49</ele></trkpt>
      <trkpt lat="40.00803187" lon="-104.99196813"><ele>1696.35</ele></trkpt>
      <trkpt lat="40.00821036" lon="-104.99178964"><ele>1697.20</ele></trkpt>
      <trkpt lat="40.00838884" lon="-104.99161116"><ele>1698.04</ele></trkpt>
      <trkpt lat="40.00856733" lon="-104.99143267"><ele>1698.86</ele></trkpt>
      <trkpt lat="40.00874581" lon="-104.99125419"><ele>1699.67</ele></trkpt>
      <trkpt lat="40.00892430" lon="-104.99107570"><ele>1700.47</ele></trkpt>
      <trkpt lat="40.00910279" lon="-104.99089721"><ele>1701.25</ele></trkpt>
      <trkpt lat="40.00928127" lon="-104.99071873"><ele>1702.02</ele></trkpt>
      <trkpt lat="40.00945976" lon="-104.99054024"><ele>1702.78</ele></trkpt>
      <trkpt lat="40.00963824" lon="-104.99036176"><ele>1703.53</ele></trkpt>
      <trkpt lat="40.00981673" lon="-104.99018327"><ele>1704.26</ele></trkpt>
      <trkpt lat="40.00999522" lon="-104.99000478"><ele>1704.98</ele></trkpt>
      <trkpt lat="40.01017370" lon="-104.98982630"><ele>1705.69</ele></trkpt>
      <trkpt lat="40.01035219" lon="-104.98964781"><ele>1706.38</ele></trkpt>
      <trkpt lat="40.01053067" lon="-104.98946933"><ele>1707.07</ele></trkpt>
      <trkpt lat="40.01070916" lon="-104.98929084"><ele>1707.74</ele></trkpt>
      <trkpt lat="40.01088765" lon="-104.98911235"><ele>1708.39</ele></trkpt>
      <trkpt lat="40.01106613" lon="-104.98893387"><ele>1709.04</ele></trkpt>
      <trkpt lat="40.01124462" lon="-104.98875538"><ele>1709.67</ele></trkpt>
      <trkpt lat="40.01142310" lon="-104.98857690"><ele>1710.29</ele></trkpt>
      <trkpt lat="40.01160159" lon="-104.98839841"><ele>1710.89</ele></trkpt>
      <trkpt lat="40.01178008" lon="-104.98821992"><ele>1711.49</ele></trkpt>
      <trkpt lat="40.01195856" lon="-104.98804144"><ele>1712.07</ele></trkpt>
      <trkpt lat="40.01200000" lon="-104.98800000"><ele>1712.20</ele></trkpt>
      <trkpt lat="40.01177517" lon="-104.98800000"><ele>1710.72</ele></trkpt>
      <trkpt lat="40.01155034" lon="-104.98800000"><ele>1709.23</ele></trkpt>
      <trkpt lat="40.01155034" lon="-104.98800000"><ele>1709.23</ele></trkpt>
      <trkpt lat="40.01132551" lon="-104.98800000"><ele>1707.75</ele></trkpt>
      <trkpt lat="40.01110068" lon="-104.98800000"><ele>1706.26</ele></trkpt>
      <trkpt lat="40.01087585" lon="-104.98800000"><ele>1704.78</ele></trkpt>
      <trkpt lat="40.01087585" lon="-104.98800000"><ele>1704.78</ele></trkpt>
      <trkpt lat="40.01065102" lon="-104.98800000"><ele>1703.30</ele></trkpt>
      <trkpt lat="40.01042619" lon="-104.98800000"><ele>1701.81</ele></trkpt>
      <trkpt lat="40.01020136" lon="-104.98800000"><ele>1700.33</ele></trkpt>
      <trkpt lat="40.01020136" lon="-104.98800000"><ele>1700.33</ele></trkpt>
      <trkpt lat="40.00997653" lon="-104.98800000"><ele>1698.85</ele></trkpt>
      <trkpt lat="40.00975170" lon="-104.98800000"><ele>1697.36</ele></trkpt>
      <trkpt lat="40.00952687" lon="-104.98800000"><ele>1695.88</ele></trkpt>
      <trkpt lat="40.00952687" lon="-104.98800000"><ele>1695.88</ele></trkpt>
      <trkpt lat="40.00930204" lon="-104.98800000"><ele>1694.39</ele></trkpt>
      <trkpt lat="40.00907721" lon="-104.98800000"><ele>1692.91</ele></trkpt>
      <trkpt lat="40.00907721" lon="-104.98800000"><ele>1692.91</ele></trkpt>
      <trkpt lat="40.00885238" lon="-104.98800000"><ele>1691.43</ele></trkpt>
      <trkpt lat="40.00885238" lon="-104.98800000"><ele>1691.43</ele></trkpt>
      <trkpt lat="40.00862755" lon="-104.98800000"><ele>1689.94</ele></trkpt>
      <trkpt lat="40.00840272" lon="-104.98800000"><ele>1688.46</ele></trkpt>
      <trkpt lat="40.00840272" lon="-104.98800000"><ele>1688.46</ele></trkpt>
      <trkpt lat="40.00817789" lon="-104.98800000"><ele>1686.97</ele></trkpt>
      <trkpt lat="40.00795306" lon="-104.98800000"><ele>1685.49</ele></trkpt>
      <trkpt lat="40.00772823" lon="-104.98800000"><ele>1684.01</ele></trkpt>
      <trkpt lat="40.00772823" lon="-104.98800000"><ele>1684.01</ele></trkpt>
      <trkpt lat="40.00750340" lon="-104.98800000"><ele>1682.52</ele></trkpt>
      <trkpt lat="40.00727857" lon="-104.98800000"><ele>1681.04</ele></trkpt>
      <trkpt lat="40.00705374" lon="-104.98800000"><ele>1679.55</ele></trkpt>
      <trkpt lat="40.00705374" lon="-104.98800000"><ele>1679.55</ele></trkpt>
      <trkpt lat="40.00682891" lon="-104.98800000"><ele>1678.07</ele></trkpt>
      <trkpt lat="40.00660408" lon="-104.98800000"><ele>1676.59</ele></trkpt>
      <trkpt lat="40.00637925" lon="-104.98800000"><ele>1675.10</ele></trkpt>
      <trkpt lat="40.00637925" lon="-104.98800000"><ele>1675.10</ele></trkpt>
      <trkpt lat="40.00615442" lon="-104.98800000"><ele>1673.62</ele></trkpt>
      <trkpt lat="40.00592959" lon="-104.98800000"><ele>1672.14</ele></trkpt>
      <trkpt lat="40.00570476" lon="-104.98800000"><ele>1670.65</ele></trkpt>
      <trkpt lat="40.00570476" lon="-104.98800000"><ele>1670.65</ele></trkpt>
      <trkpt lat="40.00547993" lon="-104.98800000"><ele>1669.17</ele></trkpt>
      <trkpt lat="40.00525510" lon="-104.98800000"><ele>1667.68</ele></trkpt>
      <trkpt lat="40.00503027" lon="-104.98800000"><ele>1666.20</ele></trkpt>
      <trkpt lat="40.00503027" lon="-104.98800000"><ele>1666.20</ele></trkpt>
      <trkpt lat="40.00480544" lon="-104.98800000"><ele>1664.05</ele></trkpt>
      <trkpt lat="40.00458061" lon="-104.98800000"><ele>1661.81</ele></trkpt>
      <trkpt lat="40.00435578" lon="-104.98800000"><ele>1659.56</ele></trkpt>
      <trkpt lat="40.00435578" lon="-104.98800000"><ele>1659.56</ele></trkpt>
      <trkpt lat="40.00413095" lon="-104.98800000"><ele>1657.31</ele></trkpt>
      <trkpt lat="40.00390612" lon="-104.98800000"><ele>1655.06</ele></trkpt>
      <trkpt lat="40.00368129" lon="-104.98800000"><ele>1652.81</ele></trkpt>
      <trkpt lat="40.00368129" lon="-104.98800000"><ele>1652.81</ele></trkpt>
      <trkpt lat="40.00345646" lon="-104.98800000"><ele>1650.56</ele></trkpt>
      <trkpt lat="40.00323163" lon="-104.98800000"><ele>1648.32</ele></trkpt>
      <trkpt lat="40.00323163" lon="-104.98800000"><ele>1648.32</ele></trkpt>
      <trkpt lat="40.00300680" lon="-104.98800000"><ele>1646.07</ele></trkpt>
      <trkpt lat="40.00278197" lon="-104.98800000"><ele>1643.82</ele></trkpt>
      <trkpt lat="40.00255714" lon="-104.98800000"><ele>1641.57</ele></trkpt>
      <trkpt lat="40.00255714" lon="-104.98800000"><ele>1641.57</ele></trkpt>
      <trkpt lat="40.00233231" lon="-104.98800000"><ele>1639.32</ele></trkpt>
      <trkpt lat="40.00210748" lon="-104.98800000"><ele>1637.07</ele></trkpt>
      <trkpt lat="40.00188265" lon="-104.98800000"><ele>1634.83</ele></trkpt>
      <trkpt lat="40.00188265" lon="-104.98800000"><ele>1634.83</ele></trkpt>
      <trkpt lat="40.00165782" lon="-104.98800000"><ele>1632.58</ele></trkpt>
      <trkpt lat="40.00143299" lon="-104.98800000"><ele>1630.33</ele></trkpt>
      <trkpt lat="40.00120816" lon="-104.98800000"><ele>1628.08</ele></trkpt>
      <trkpt lat="40.00120816" lon="-104.98800000"><ele>1628.08</ele></trkpt>
      <trkpt lat="40.00098333" lon="-104.98800000"><ele>1625.83</ele></trkpt>
      <trkpt lat="40.00075850" lon="-104.98800000"><ele>1623.58</ele></trkpt>
      <trkpt lat="40.00053367" lon="-104.98800000"><ele>1621.34</ele></trkpt>
      <trkpt lat="40.00053367" lon="-104.98800000"><ele>1621.34</ele></trkpt>
      <trkpt lat="40.00030884" lon="-104.98800000"><ele>1619.09</ele></trkpt>
      <trkpt lat="40.00008401" lon="-104.98800000"><ele>1616.84</ele></trkpt>
      <trkpt lat="40.00000000" lon="-104.98800000"><ele>1616.00</ele></trkpt>
      <trkpt lat="40.00000000" lon="-104.98829349"><ele>1616.59</ele></trkpt>
      <trkpt lat="40.00000000" lon="-104.98829349"><ele>1616.59</ele></trkpt>
      <trkpt lat="40.00000000" lon="-104.98858699"><ele>1617.17</ele></trkpt>
      <trkpt lat="40.00000000" lon="-104.98858699"><ele>1617.17</ele></trkpt>
      <trkpt lat="40.00000000" lon="-104.98888048"><ele>1617.76</ele></trkpt>
      <trkpt lat="40.00000000" lon="-104.98888048"><ele>1617.76</ele></trkpt>
      <trkpt lat="40.00000000" lon="-104.98917398"><ele>1618.35</ele></trkpt>
      <trkpt lat="40.00000000" lon="-104.98917398"><ele>1618.35</ele></trkpt>
      <trkpt lat="40.00000000" lon="-104.98946747"><ele>1618.93</ele></trkpt>
      <trkpt lat="40.00000000" lon="-104.98946747"><ele>1618.93</ele></trkpt>
      <trkpt lat="40.00000000" lon="-104.98976097"><ele>1619.52</ele></trkpt>
      <trkpt lat="40.00000000" lon="-104.98976097"><ele>1619.52</ele></trkpt>
      <trkpt lat="40.00000000" lon="-104.99005446"><ele>1620.11</ele></trkpt>
      <trkpt lat="40.00000000" lon="-104.99005446"><ele>1620.11</ele></trkpt>
      <trkpt lat="40.00000000" lon="-104.99034796"><ele>1620.70</ele></trkpt>
      <trkpt lat="40.00000000" lon="-104.99034796"><ele>1620.70</ele></trkpt>
      <trkpt lat="40.00000000" lon="-104.99064145"><ele>1621.28</ele></trkpt>
      <trkpt lat="40.00000000" lon="-104.99064145"><ele>1621.28</ele></trkpt>
      <trkpt lat="40.00000000" lon="-104.99093495"><ele>1621.87</ele></trkpt>
      <trkpt lat="40.00000000" lon="-104.99093495"><ele>1621.87</ele></trkpt>
      <trkpt lat="40.00000000" lon="-104.99122844"><ele>1622.46</ele></trkpt>
      <trkpt lat="40.00000000" lon="-104.99122844"><ele>1622.46</ele></trkpt>
      <trkpt lat="40.00000000" lon="-104.99152194"><ele>1623.04</ele></trkpt>
      <trkpt lat="40.00000000" lon="-104.99152194"><ele>1623.04</ele></trkpt>
      <trkpt lat="40.00000000" lon="-104.99181543"><ele>1623.63</ele></trkpt>
      <trkpt lat="40.00000000" lon="-104.99181543"><ele>1623.63</ele></trkpt>
      <trkpt lat="40.00000000" lon="-104.99210893"><ele>1624.22</ele></trkpt>
      <trkpt lat="40.00000000" lon="-104.99210893"><ele>1624.22</ele></trkpt>
      <trkpt lat="40.00000000" lon="-104.99240242"><ele>1624.80</ele></trkpt>
      <trkpt lat="40.00000000" lon="-104.99240242"><ele>1624.80</ele></trkpt>
      <trkpt lat="40.00000000" lon="-104.99269592"><ele>1625.39</ele></trkpt>
      <trkpt lat="40.00000000" lon="-104.99269592"><ele>1625.39</ele></trkpt>
      <trkpt lat="40.00000000" lon="-104.99298941"><ele>1625.98</ele></trkpt>
      <trkpt lat="40.00000000" lon="-104.99298941"><ele>1625.98</ele></trkpt>
      <trkpt lat="40.00000000" lon="-104.99328291"><ele>1626.57</ele></trkpt>
      <trkpt lat="40.00000000" lon="-104.99328291"><ele>1626.57</ele></trkpt>
      <trkpt lat="40.00000000" lon="-104.99357640"><ele>1627.15</ele></trkpt>
      <trkpt lat="40.00000000" lon="-104.99357640"><ele>1627.15</ele></trkpt>
      <trkpt lat="40.00000000" lon="-104.99386990"><ele>1627.74</ele></trkpt>
      <trkpt lat="40.00000000" lon="-104.99386990"><ele>1627.74</ele></trkpt>
      <trkpt lat="40.00000000" lon="-104.99416339"><ele>1628.33</ele></trkpt>
      <trkpt lat="40.00000000" lon="-104.99416339"><ele>1628.33</ele></trkpt>
      <trkpt lat="40.00000000" lon="-104.99445689"><ele>1628.91</ele></trkpt>
      <trkpt lat="40.00000000" lon="-104.99445689"><ele>1628.91</ele></trkpt>
      <trkpt lat="40.00000000" lon="-104.99475038"><ele>1629.50</ele></trkpt>
      <trkpt lat="40.00000000" lon="-104.99475038"><ele>1629.50</ele></trkpt>
      <trkpt lat="40.00000000" lon="-104.99504388"><ele>1630.09</ele></trkpt>
      <trkpt lat="40.00000000" lon="-104.99504388"><ele>1630.09</ele></trkpt>
      <trkpt lat="40.00000000" lon="-104.99533737"><ele>1630.67</ele></trkpt>
      <trkpt lat="40.00000000" lon="-104.99533737"><ele>1630.67</ele></trkpt>
      <trkpt lat="40.00000000" lon="-104.99563087"><ele>1631.26</ele></trkpt>
      <trkpt lat="40.00000000" lon="-104.99563087"><ele>1631.26</ele></trkpt>
      <trkpt lat="40.00000000" lon="-104.99592436"><ele>1631.85</ele></trkpt>
      <trkpt lat="40.00000000" lon="-104.99592436"><ele>1631.85</ele></trkpt>
      <trkpt lat="40.00000000" lon="-104.99621786"><ele>1632.44</ele></trkpt>
      <trkpt lat="40.00000000" lon="-104.99621786"><ele>1632.44</ele></trkpt>
      <trkpt lat="40.00000000" lon="-104.99651135"><ele>1633.02</ele></trkpt>
      <trkpt lat="40.00000000" lon="-104.99651135"><ele>1633.02</ele></trkpt>
      <trkpt lat="40.00000000" lon="-104.99680485"><ele>1633.61</ele></trkpt>
      <trkpt lat="40.00000000" lon="-104.99680485"><ele>1633.61</ele></trkpt>
      <trkpt lat="40.00000000" lon="-104.99709834"><ele>1634.20</ele></trkpt>
      <trkpt lat="40.00000000" lon="-104.99709834"><ele>1634.20</ele></trkpt>
      <trkpt lat="40.00000000" lon="-104.99739183"><ele>1634.78</ele></trkpt>
      <trkpt lat="40.00000000" lon="-104.99739183"><ele>1634.78</ele></trkpt>
      <trkpt lat="40.00000000" lon="-104.99768533"><ele>1635.37</ele></trkpt>
      <trkpt lat="40.00000000" lon="-104.99768533"><ele>1635.37</ele></trkpt>
      <trkpt lat="40.00000000" lon="-104.99797882"><ele>1635.96</ele></trkpt>
      <trkpt lat="40.00000000" lon="-104.99797882"><ele>1635.96</ele></trkpt>
      <trkpt lat="40.00000000" lon="-104.99827232"><ele>1636.54</ele></trkpt>
      <trkpt lat="40.00000000" lon="-104.99827232"><ele>1636.54</ele></trkpt>
      <trkpt lat="40.00000000" lon="-104.99856581"><ele>1637.13</ele></trkpt>
      <trkpt lat="40.00000000" lon="-104.99856581"><ele>1637.13</ele></trkpt>
      <trkpt lat="40.00000000" lon="-104.99885931"><ele>1637.72</ele></trkpt>
      <trkpt lat="40.00000000" lon="-104.99885931"><ele>1637.72</ele></trkpt>
      <trkpt lat="40.00000000" lon="-104.99915280"><ele>1638.31</ele></trkpt>
      <trkpt lat="40.00000000" lon="-104.99915280"><ele>1638.31</ele></trkpt>
      <trkpt lat="40.00000000" lon="-104.99944630"><ele>1638.89</ele></trkpt>
      <trkpt lat="40.00000000" lon="-104.99944630"><ele>1638.89</ele></trkpt>
      <trkpt lat="40.00000000" lon="-104.99973979"><ele>1639.48</ele></trkpt>
      <trkpt lat="40.00000000" lon="-104.99973979"><ele>1639.48</ele></trkpt>
      <trkpt lat="40.00000000" lon="-105.00000000"><ele>1640.00</ele></trkpt>
    </trkseg>
  </trk>
</gpx>
